; LightBurn 1.7.08
; GRBL device profile, absolute coords
; Bounds: X167.3 Y182.81 to X232.7 Y232.19
G00 G17 G40 G21 G54
G90
M4
; Cut @ 10 mm/sec, 80% power
M8
G0 X167.3Y185.3
; Layer C00
G1 X167.355Y184.78S800F600
G1 X167.516Y184.283
G1 X167.777Y183.831
G1 X168.127Y183.442
G1 X168.55Y183.135
G1 X169.027Y182.922
G1 X169.539Y182.814
G1 X230.461
G1 X230.973Y182.922
G1 X231.45Y183.135
G1 X231.873Y183.442
G1 X232.223Y183.831
G1 X232.484Y184.283
G1 X232.645Y184.78
G1 X232.7Y185.3
G1 Y229.7
G1 X232.645Y230.22
G1 X232.484Y230.717
G1 X232.223Y231.169
G1 X231.873Y231.558
G1 X231.45Y231.865
G1 X230.973Y232.078
G1 X230.461Y232.186
G1 X169.539
G1 X169.027Y232.078
G1 X168.55Y231.865
G1 X168.127Y231.558
G1 X167.777Y231.169
G1 X167.516Y230.717
G1 X167.355Y230.22
G1 X167.3Y229.7
G1 Y185.3
M9
G1 S0
M5
G90
; return to user-defined finish pos
G0 X0Y0
M2
