; LightBurn 1.7.08
; GRBL device profile, absolute coords
; Bounds: X179.8 Y185.81 to X220.2 Y229.19
G00 G17 G40 G21 G54
G90
M4
; Cut @ 10 mm/sec, 80% power
M8
G0 X179.8Y188.3
; Layer C00
G1 X179.855Y187.78S800F600
G1 X180.016Y187.283
G1 X180.277Y186.831
G1 X180.627Y186.442
G1 X181.05Y186.135
G1 X181.527Y185.922
G1 X182.039Y185.814
G1 X217.961
G1 X218.473Y185.922
G1 X218.95Y186.135
G1 X219.373Y186.442
G1 X219.723Y186.831
G1 X219.984Y187.283
G1 X220.145Y187.78
G1 X220.2Y188.3
G1 Y226.7
G1 X220.145Y227.22
G1 X219.984Y227.717
G1 X219.723Y228.169
G1 X219.373Y228.558
G1 X218.95Y228.865
G1 X218.473Y229.078
G1 X217.961Y229.186
G1 X182.039
G1 X181.527Y229.078
G1 X181.05Y228.865
G1 X180.627Y228.558
G1 X180.277Y228.169
G1 X180.016Y227.717
G1 X179.855Y227.22
G1 X179.8Y226.7
G1 Y188.3
M9
G1 S0
M5
G90
; return to user-defined finish pos
G0 X0Y0
M2
