; LightBurn 1.7.08
; GRBL device profile, absolute coords
; Bounds: X91.6 Y86.96 to X263.28 Y262.68
G00 G17 G40 G21 G54
G90
M4
; Cut @ 15 mm/sec, 90% power
M8
G0 X113.798Y143.406
; Layer C00
G1 X113.755Y142.973S900F900
G1 X113.629Y142.569
G1 X113.431Y142.204
G1 X113.169Y141.886
G1 X112.85Y141.623
G1 X112.485Y141.425
G1 X112.082Y141.3
G1 X111.648Y141.256
G1 X111.215Y141.3
G1 X110.811Y141.425
G1 X110.446Y141.623
G1 X110.128Y141.886
G1 X109.865Y142.204
G1 X109.667Y142.569
G1 X109.542Y142.973
G1 X109.498Y143.406
G1 X109.542Y143.84
G1 X109.667Y144.243
G1 X109.865Y144.608
G1 X110.128Y144.927
G1 X110.446Y145.189
G1 X110.811Y145.387
G1 X111.215Y145.513
G1 X111.648Y145.556
G1 X112.082Y145.513
G1 X112.485Y145.387
G1 X112.85Y145.189
G1 X113.169Y144.927
G1 X113.431Y144.608
G1 X113.629Y144.243
G1 X113.755Y143.84
G1 X113.798Y143.406
G0 X111.088Y154.482
G1 X97.301Y156.913
G1 X94.87Y143.126
G1 X108.657Y140.695
G1 X111.088Y154.482
G0 X129.799Y151.183
G1 X127.368Y137.395
G1 X113.581Y139.826
G1 X116.012Y153.614
G1 X129.799Y151.183
G0 X135.55Y155.004
G1 X149.338Y152.573
G1 X146.907Y138.786
G1 X133.119Y141.217
G1 X135.55Y155.004
G0 X133.107Y169.943
G1 X119.32Y172.374
G1 X116.889Y158.587
G1 X130.676Y156.156
G1 X133.107Y169.943
G0 X118.429Y169.671
G1 X118.386Y169.238
G1 X118.26Y168.834
G1 X118.062Y168.469
G1 X117.8Y168.151
G1 X117.482Y167.888
G1 X117.116Y167.69
G1 X116.713Y167.565
G1 X116.279Y167.521
G1 X115.846Y167.565
G1 X115.443Y167.69
G1 X115.077Y167.888
G1 X114.759Y168.151
G1 X114.497Y168.469
G1 X114.298Y168.834
G1 X114.173Y169.238
G1 X114.129Y169.671
G1 X114.173Y170.104
G1 X114.298Y170.508
G1 X114.497Y170.873
G1 X114.759Y171.191
G1 X115.077Y171.454
G1 X115.443Y171.652
G1 X115.846Y171.777
G1 X116.279Y171.821
G1 X116.713Y171.777
G1 X117.116Y171.652
G1 X117.482Y171.454
G1 X117.8Y171.191
G1 X118.062Y170.873
G1 X118.26Y170.508
G1 X118.386Y170.104
G1 X118.429Y169.671
G0 X100.609Y175.674
G1 X114.396Y173.242
G1 X111.965Y159.455
G1 X98.178Y161.886
G1 X100.609Y175.674
G0 X152.646Y171.334
G1 X138.858Y173.765
G1 X136.427Y159.978
G1 X150.215Y157.547
G1 X152.646Y171.334
G0 X158.397Y175.156
G1 X172.184Y172.725
G1 X169.753Y158.938
G1 X155.966Y161.369
G1 X158.397Y175.156
G0 X155.687Y162.134
G1 X155.643Y161.701
G1 X155.518Y161.298
G1 X155.32Y160.932
G1 X155.057Y160.614
G1 X154.739Y160.352
G1 X154.374Y160.153
G1 X153.97Y160.028
G1 X153.537Y159.984
G1 X153.103Y160.028
G1 X152.7Y160.153
G1 X152.335Y160.352
G1 X152.016Y160.614
G1 X151.754Y160.932
G1 X151.556Y161.298
G1 X151.43Y161.701
G1 X151.387Y162.134
G1 X151.43Y162.568
G1 X151.556Y162.971
G1 X151.754Y163.337
G1 X152.016Y163.655
G1 X152.335Y163.917
G1 X152.7Y164.115
G1 X153.103Y164.241
G1 X153.537Y164.284
G1 X153.97Y164.241
G1 X154.374Y164.115
G1 X154.739Y163.917
G1 X155.057Y163.655
G1 X155.32Y163.337
G1 X155.518Y162.971
G1 X155.643Y162.568
G1 X155.687Y162.134
G0 X168.876Y153.964
G1 X155.089Y156.395
G1 X152.658Y142.608
G1 X166.445Y140.177
G1 X168.876Y153.964
G0 X172.973Y148.406
G1 X186.76Y145.975
G1 X184.329Y132.187
G1 X170.542Y134.619
G1 X172.973Y148.406
G0 X190.857Y140.416
G1 X204.645Y137.985
G1 X202.214Y124.198
G1 X188.426Y126.629
G1 X190.857Y140.416
G0 X194.165Y159.177
G1 X207.953Y156.746
G1 X205.522Y142.959
G1 X191.734Y145.39
G1 X194.165Y159.177
G0 X176.281Y167.166
G1 X190.068Y164.735
G1 X187.637Y150.948
G1 X173.85Y153.379
G1 X176.281Y167.166
G0 X196.583Y175.234
G1 X196.539Y174.801
G1 X196.414Y174.398
G1 X196.216Y174.032
G1 X195.953Y173.714
G1 X195.635Y173.452
G1 X195.27Y173.253
G1 X194.866Y173.128
G1 X194.433Y173.084
G1 X194Y173.128
G1 X193.596Y173.253
G1 X193.231Y173.452
G1 X192.913Y173.714
G1 X192.65Y174.032
G1 X192.452Y174.398
G1 X192.326Y174.801
G1 X192.283Y175.234
G1 X192.326Y175.668
G1 X192.452Y176.071
G1 X192.65Y176.437
G1 X192.913Y176.755
G1 X193.231Y177.017
G1 X193.596Y177.215
G1 X194Y177.341
G1 X194.433Y177.384
G1 X194.866Y177.341
G1 X195.27Y177.215
G1 X195.635Y177.017
G1 X195.953Y176.755
G1 X196.216Y176.437
G1 X196.414Y176.071
G1 X196.539Y175.668
G1 X196.583Y175.234
G0 X193.376Y183.496
G1 X179.589Y185.927
G1 X177.158Y172.14
G1 X190.945Y169.709
G1 X193.376Y183.496
G0 X211.261Y175.506
G1 X208.83Y161.719
G1 X195.042Y164.15
G1 X197.473Y177.938
G1 X211.261Y175.506
G0 X226.772Y184.963
G1 X240.295Y181.34
G1 X236.672Y167.817
G1 X223.149Y171.44
G1 X226.772Y184.963
G0 X247.728Y181.503
G1 X247.685Y181.07
G1 X247.559Y180.666
G1 X247.361Y180.301
G1 X247.099Y179.983
G1 X246.78Y179.72
G1 X246.415Y179.522
G1 X246.012Y179.397
G1 X245.578Y179.353
G1 X245.145Y179.397
G1 X244.741Y179.522
G1 X244.376Y179.72
G1 X244.058Y179.983
G1 X243.795Y180.301
G1 X243.597Y180.666
G1 X243.472Y181.07
G1 X243.428Y181.503
G1 X243.472Y181.936
G1 X243.597Y182.34
G1 X243.795Y182.705
G1 X244.058Y183.023
G1 X244.376Y183.286
G1 X244.741Y183.484
G1 X245.145Y183.609
G1 X245.578Y183.653
G1 X246.012Y183.609
G1 X246.415Y183.484
G1 X246.78Y183.286
G1 X247.099Y183.023
G1 X247.361Y182.705
G1 X247.559Y182.34
G1 X247.685Y181.936
G1 X247.728Y181.503
G0 X246.926Y174.505
G1 X259.509Y168.368
G1 X253.372Y155.785
G1 X240.789Y161.922
G1 X246.926Y174.505
G0 X235.98Y205.778
G1 X249.768Y203.347
G1 X247.337Y189.56
G1 X233.549Y191.991
G1 X235.98Y205.778
G0 X218.096Y213.768
G1 X231.883Y211.337
G1 X229.452Y197.549
G1 X215.665Y199.981
G1 X218.096Y213.768
G0 X213.999Y219.326
G1 X200.212Y221.757
G1 X197.781Y207.97
G1 X211.568Y205.539
G1 X213.999Y219.326
G0 X200.81Y227.497
G1 X200.766Y227.063
G1 X200.641Y226.66
G1 X200.443Y226.294
G1 X200.18Y225.976
G1 X199.862Y225.714
G1 X199.497Y225.515
G1 X199.093Y225.39
G1 X198.66Y225.347
G1 X198.226Y225.39
G1 X197.823Y225.515
G1 X197.458Y225.714
G1 X197.139Y225.976
G1 X196.877Y226.294
G1 X196.679Y226.66
G1 X196.553Y227.063
G1 X196.51Y227.497
G1 X196.553Y227.93
G1 X196.679Y228.333
G1 X196.877Y228.699
G1 X197.139Y229.017
G1 X197.458Y229.279
G1 X197.823Y229.478
G1 X198.226Y229.603
G1 X198.66Y229.647
G1 X199.093Y229.603
G1 X199.497Y229.478
G1 X199.862Y229.279
G1 X200.18Y229.017
G1 X200.443Y228.699
G1 X200.641Y228.333
G1 X200.766Y227.93
G1 X200.81Y227.497
G0 X197.769Y236.696
G1 X183.981Y239.127
G1 X181.55Y225.34
G1 X195.338Y222.909
G1 X197.769Y236.696
G0 X203.52Y240.518
G1 X217.307Y238.087
G1 X214.876Y224.3
G1 X201.089Y226.731
G1 X203.52Y240.518
G0 X221.404Y232.528
G1 X235.191Y230.097
G1 X232.76Y216.31
G1 X218.973Y218.741
G1 X221.404Y232.528
G0 X239.288Y224.539
G1 X253.076Y222.108
G1 X250.645Y208.321
G1 X236.857Y210.752
G1 X239.288Y224.539
G0 X241.706Y240.596
G1 X241.662Y240.163
G1 X241.537Y239.76
G1 X241.339Y239.394
G1 X241.076Y239.076
G1 X240.758Y238.814
G1 X240.393Y238.615
G1 X239.989Y238.49
G1 X239.556Y238.447
G1 X239.122Y238.49
G1 X238.719Y238.615
G1 X238.354Y238.814
G1 X238.035Y239.076
G1 X237.773Y239.394
G1 X237.575Y239.76
G1 X237.449Y240.163
G1 X237.406Y240.596
G1 X237.449Y241.03
G1 X237.575Y241.433
G1 X237.773Y241.799
G1 X238.035Y242.117
G1 X238.354Y242.379
G1 X238.719Y242.578
G1 X239.122Y242.703
G1 X239.556Y242.746
G1 X239.989Y242.703
G1 X240.393Y242.578
G1 X240.758Y242.379
G1 X241.076Y242.117
G1 X241.339Y241.799
G1 X241.537Y241.433
G1 X241.662Y241.03
G1 X241.706Y240.596
G0 X238.499Y248.858
G1 X224.712Y251.289
G1 X222.281Y237.502
G1 X236.068Y235.071
G1 X238.499Y248.858
G0 X256.384Y240.868
G1 X253.953Y227.081
G1 X240.165Y229.512
G1 X242.596Y243.3
G1 X256.384Y240.868
G0 X206.828Y259.279
G1 X220.615Y256.847
G1 X218.184Y243.06
G1 X204.397Y245.491
G1 X206.828Y259.279
G0 X201.077Y255.457
G1 X198.646Y241.669
G1 X184.858Y244.1
G1 X187.289Y257.888
G1 X201.077Y255.457
G0 X178.23Y235.305
G1 X164.443Y237.736
G1 X162.012Y223.949
G1 X175.799Y221.518
G1 X178.23Y235.305
G0 X163.552Y235.033
G1 X163.509Y234.6
G1 X163.383Y234.196
G1 X163.185Y233.831
G1 X162.923Y233.513
G1 X162.604Y233.25
G1 X162.239Y233.052
G1 X161.836Y232.927
G1 X161.402Y232.883
G1 X160.969Y232.927
G1 X160.566Y233.052
G1 X160.2Y233.25
G1 X159.882Y233.513
G1 X159.62Y233.831
G1 X159.421Y234.196
G1 X159.296Y234.6
G1 X159.252Y235.033
G1 X159.296Y235.466
G1 X159.421Y235.87
G1 X159.62Y236.235
G1 X159.882Y236.553
G1 X160.2Y236.816
G1 X160.566Y237.014
G1 X160.969Y237.139
G1 X161.402Y237.183
G1 X161.836Y237.139
G1 X162.239Y237.014
G1 X162.604Y236.816
G1 X162.923Y236.553
G1 X163.185Y236.235
G1 X163.383Y235.87
G1 X163.509Y235.466
G1 X163.552Y235.033
G0 X145.732Y241.036
G1 X159.519Y238.604
G1 X157.088Y224.817
G1 X143.301Y227.248
G1 X145.732Y241.036
G0 X156.211Y219.844
G1 X142.424Y222.275
G1 X139.993Y208.488
G1 X153.78Y206.057
G1 X156.211Y219.844
G0 X158.921Y208.768
G1 X158.877Y208.335
G1 X158.752Y207.931
G1 X158.554Y207.566
G1 X158.291Y207.248
G1 X157.973Y206.986
G1 X157.608Y206.787
G1 X157.204Y206.662
G1 X156.771Y206.618
G1 X156.338Y206.662
G1 X155.934Y206.787
G1 X155.569Y206.986
G1 X155.251Y207.248
G1 X154.988Y207.566
G1 X154.79Y207.931
G1 X154.665Y208.335
G1 X154.621Y208.768
G1 X154.665Y209.202
G1 X154.79Y209.605
G1 X154.988Y209.97
G1 X155.251Y210.289
G1 X155.569Y210.551
G1 X155.934Y210.749
G1 X156.338Y210.875
G1 X156.771Y210.918
G1 X157.204Y210.875
G1 X157.608Y210.749
G1 X157.973Y210.551
G1 X158.291Y210.289
G1 X158.554Y209.97
G1 X158.752Y209.605
G1 X158.877Y209.202
G1 X158.921Y208.768
G0 X174.922Y216.545
G1 X172.491Y202.757
G1 X158.704Y205.188
G1 X161.135Y218.976
G1 X174.922Y216.545
G0 X180.673Y220.367
G1 X194.461Y217.935
G1 X192.03Y204.148
G1 X178.242Y206.579
G1 X180.673Y220.367
G0 X161.705Y193.916
G1 X175.492Y191.485
G1 X173.061Y177.698
G1 X159.274Y180.129
G1 X161.705Y193.916
G0 X155.954Y190.095
G1 X153.523Y176.307
G1 X139.735Y178.738
G1 X142.166Y192.526
G1 X155.954Y190.095
G0 X181.649Y119.601
G1 X195.172Y115.978
G1 X191.549Y102.455
G1 X178.026Y106.078
G1 X181.649Y119.601
G0 X202.605Y116.141
G1 X202.562Y115.708
G1 X202.436Y115.304
G1 X202.238Y114.939
G1 X201.976Y114.621
G1 X201.657Y114.358
G1 X201.292Y114.16
G1 X200.889Y114.035
G1 X200.455Y113.991
G1 X200.022Y114.035
G1 X199.618Y114.16
G1 X199.253Y114.358
G1 X198.935Y114.621
G1 X198.673Y114.939
G1 X198.474Y115.304
G1 X198.349Y115.708
G1 X198.305Y116.141
G1 X198.349Y116.574
G1 X198.474Y116.978
G1 X198.673Y117.343
G1 X198.935Y117.661
G1 X199.253Y117.924
G1 X199.618Y118.122
G1 X200.022Y118.247
G1 X200.455Y118.291
G1 X200.889Y118.247
G1 X201.292Y118.122
G1 X201.657Y117.924
G1 X201.976Y117.661
G1 X202.238Y117.343
G1 X202.436Y116.978
G1 X202.562Y116.574
G1 X202.605Y116.141
G0 X201.803Y109.143
G1 X214.386Y103.006
G1 X208.249Y90.423
G1 X195.666Y96.56
G1 X201.803Y109.143
G0 X217.676Y105.429
G1 X217.851Y105.191
G1 X217.986Y104.934
G1 X218.082Y104.663
G1 X218.139Y104.383
G1 X218.154Y104.097
G1 X218.129Y103.81
G1 X218.062Y103.528
G1 X217.952Y103.254
G1 X210.551Y88.08
G1 X210.338Y87.736
G1 X210.069Y87.449
G1 X209.754Y87.225
G1 X209.405Y87.066
G1 X209.032Y86.976
G1 X208.646Y86.959
G1 X208.257Y87.019
G1 X207.877Y87.159
G1 X193.099Y94.367
G1 X192.794Y94.551
G1 X192.529Y94.784
G1 X192.309Y95.059
G1 X192.139Y95.372
G1 X190.708Y98.688
G1 X190.606Y98.892
G1 X190.483Y99.081
G1 X190.34Y99.253
G1 X190.18Y99.409
G1 X190.003Y99.545
G1 X189.811Y99.662
G1 X189.606Y99.756
G1 X189.39Y99.827
G1 X176.007Y103.413
G1 X175.649Y103.547
G1 X175.331Y103.74
G1 X175.059Y103.984
G1 X174.837Y104.272
G1 X174.67Y104.595
G1 X174.564Y104.946
G1 X174.524Y105.315
G1 X174.555Y105.696
G1 X178.535Y128.03
G1 X178.566Y128.424
G1 X178.519Y128.811
G1 X178.398Y129.183
G1 X178.205Y129.527
G1 X177.949Y129.826
G1 X177.641Y130.068
G1 X177.293Y130.244
G1 X176.913Y130.351
G1 X168.181Y131.89
G1 X167.907Y131.959
G1 X167.649Y132.064
G1 X167.41Y132.203
G1 X167.193Y132.372
G1 X167.001Y132.569
G1 X166.838Y132.792
G1 X166.706Y133.037
G1 X166.608Y133.303
G1 X165.824Y136.007
G1 X165.726Y136.273
G1 X165.594Y136.518
G1 X165.43Y136.741
G1 X165.239Y136.938
G1 X165.022Y137.108
G1 X164.783Y137.246
G1 X164.525Y137.351
G1 X164.25Y137.42
G1 X153.777Y139.266
G1 X153.496Y139.296
G1 X153.217Y139.285
G1 X152.945Y139.237
G1 X152.683Y139.152
G1 X152.436Y139.032
G1 X152.206Y138.879
G1 X151.998Y138.693
G1 X151.815Y138.477
G1 X150.154Y136.204
G1 X149.971Y135.988
G1 X149.763Y135.803
G1 X149.533Y135.649
G1 X149.285Y135.529
G1 X149.024Y135.444
G1 X148.752Y135.396
G1 X148.473Y135.386
G1 X148.192Y135.415
G1 X134.239Y137.875
G1 X133.957Y137.905
G1 X133.679Y137.895
G1 X133.407Y137.846
G1 X133.145Y137.761
G1 X132.898Y137.641
G1 X132.668Y137.488
G1 X132.46Y137.302
G1 X132.277Y137.086
G1 X130.615Y134.814
G1 X130.432Y134.597
G1 X130.224Y134.412
G1 X129.995Y134.258
G1 X129.747Y134.138
G1 X129.485Y134.054
G1 X129.213Y134.005
G1 X128.935Y133.995
G1 X128.653Y134.024
G1 X93.252Y140.267
G1 X92.862Y140.377
G1 X92.513Y140.557
G1 X92.21Y140.797
G1 X91.961Y141.089
G1 X91.772Y141.423
G1 X91.649Y141.79
G1 X91.6Y142.18
G1 X91.63Y142.583
G1 X97.572Y176.284
G1 X97.638Y176.575
G1 X97.732Y176.856
G1 X97.853Y177.124
G1 X97.999Y177.38
G1 X98.17Y177.619
G1 X98.363Y177.842
G1 X98.579Y178.045
G1 X98.815Y178.227
G1 X99.068Y178.385
G1 X99.334Y178.516
G1 X99.61Y178.619
G1 X99.894Y178.696
G1 X100.184Y178.743
G1 X100.478Y178.763
G1 X100.774Y178.753
G1 X101.07Y178.713
G1 X132.558Y172.917
G1 X132.86Y172.877
G1 X133.158Y172.867
G1 X133.452Y172.887
G1 X133.739Y172.935
G1 X134.018Y173.01
G1 X134.287Y173.111
G1 X134.544Y173.237
G1 X134.787Y173.386
G1 X135.016Y173.557
G1 X135.227Y173.75
G1 X135.42Y173.962
G1 X135.592Y174.194
G1 X135.743Y174.443
G1 X135.869Y174.709
G1 X135.97Y174.99
G1 X136.044Y175.285
G1 X139.991Y195.249
G1 X140.649Y195.937
G1 X154.834Y193.436
G1 X155.116Y193.407
G1 X155.394Y193.417
G1 X155.666Y193.465
G1 X155.928Y193.55
G1 X156.175Y193.67
G1 X156.405Y193.824
G1 X156.613Y194.009
G1 X156.796Y194.225
G1 X158.458Y196.498
G1 X158.641Y196.714
G1 X158.849Y196.9
G1 X159.078Y197.053
G1 X159.326Y197.173
G1 X159.588Y197.258
G1 X159.86Y197.306
G1 X160.138Y197.317
G1 X160.42Y197.287
G1 X177.853Y194.213
G1 X178.127Y194.145
G1 X178.385Y194.04
G1 X178.624Y193.901
G1 X178.841Y193.732
G1 X179.033Y193.535
G1 X179.196Y193.312
G1 X179.328Y193.066
G1 X179.426Y192.801
G1 X180.21Y190.097
G1 X180.308Y189.831
G1 X180.44Y189.586
G1 X180.604Y189.363
G1 X180.795Y189.166
G1 X181.012Y188.996
G1 X181.251Y188.858
G1 X181.509Y188.753
G1 X181.784Y188.684
G1 X195.737Y186.224
G1 X196.011Y186.155
G1 X196.27Y186.05
G1 X196.509Y185.912
G1 X196.726Y185.743
G1 X196.917Y185.545
G1 X197.081Y185.322
G1 X197.213Y185.077
G1 X197.31Y184.811
G1 X198.095Y182.107
G1 X198.193Y181.842
G1 X198.325Y181.596
G1 X198.488Y181.373
G1 X198.68Y181.176
G1 X198.896Y181.007
G1 X199.136Y180.868
G1 X199.394Y180.763
G1 X199.668Y180.695
G1 X212.878Y178.366
G1 X213.268Y178.256
G1 X213.618Y178.076
G1 X213.92Y177.835
G1 X214.169Y177.543
G1 X214.358Y177.209
G1 X214.481Y176.843
G1 X214.531Y176.453
G1 X214.501Y176.049
G1 X204.889Y121.539
G1 X204.861Y121.098
G1 X204.929Y120.666
G1 X205.089Y120.26
G1 X205.337Y119.894
G1 X217.676Y105.429
G0 X262.799Y170.791
G1 X262.974Y170.553
G1 X263.109Y170.296
G1 X263.205Y170.025
G1 X263.262Y169.745
G1 X263.277Y169.459
G1 X263.252Y169.173
G1 X263.185Y168.89
G1 X263.075Y168.616
G1 X255.674Y153.442
G1 X255.461Y153.098
G1 X255.192Y152.811
G1 X254.877Y152.587
G1 X254.528Y152.428
G1 X254.155Y152.338
G1 X253.769Y152.321
G1 X253.38Y152.381
G1 X253Y152.521
G1 X238.222Y159.729
G1 X237.917Y159.913
G1 X237.652Y160.146
G1 X237.431Y160.422
G1 X237.262Y160.734
G1 X235.831Y164.05
G1 X235.729Y164.254
G1 X235.606Y164.443
G1 X235.463Y164.615
G1 X235.303Y164.771
G1 X235.126Y164.907
G1 X234.934Y165.024
G1 X234.729Y165.118
G1 X234.513Y165.189
G1 X221.13Y168.775
G1 X220.772Y168.909
G1 X220.454Y169.102
G1 X220.182Y169.346
G1 X219.959Y169.634
G1 X219.793Y169.957
G1 X219.687Y170.308
G1 X219.647Y170.678
G1 X219.678Y171.058
G1 X223.658Y193.392
G1 X223.689Y193.786
G1 X223.642Y194.173
G1 X223.521Y194.545
G1 X223.328Y194.889
G1 X223.072Y195.188
G1 X222.764Y195.43
G1 X222.416Y195.606
G1 X222.036Y195.713
G1 X213.304Y197.253
G1 X213.03Y197.321
G1 X212.772Y197.426
G1 X212.533Y197.565
G1 X212.316Y197.734
G1 X212.124Y197.931
G1 X211.961Y198.154
G1 X211.829Y198.4
G1 X211.731Y198.665
G1 X210.947Y201.369
G1 X210.849Y201.635
G1 X210.717Y201.88
G1 X210.553Y202.103
G1 X210.362Y202.3
G1 X210.145Y202.47
G1 X209.906Y202.608
G1 X209.647Y202.713
G1 X209.373Y202.782
G1 X198.9Y204.628
G1 X198.619Y204.658
G1 X198.34Y204.647
G1 X198.068Y204.599
G1 X197.806Y204.514
G1 X197.559Y204.394
G1 X197.329Y204.241
G1 X197.121Y204.055
G1 X196.938Y203.839
G1 X195.276Y201.566
G1 X195.094Y201.35
G1 X194.886Y201.165
G1 X194.656Y201.011
G1 X194.408Y200.891
G1 X194.147Y200.806
G1 X193.875Y200.758
G1 X193.596Y200.748
G1 X193.315Y200.777
G1 X179.362Y203.238
G1 X179.08Y203.267
G1 X178.802Y203.257
G1 X178.53Y203.208
G1 X178.268Y203.123
G1 X178.021Y203.003
G1 X177.791Y202.85
G1 X177.583Y202.664
G1 X177.4Y202.448
G1 X175.738Y200.176
G1 X175.555Y199.96
G1 X175.347Y199.774
G1 X175.118Y199.62
G1 X174.87Y199.501
G1 X174.608Y199.416
G1 X174.336Y199.367
G1 X174.058Y199.357
G1 X173.776Y199.386
G1 X138.375Y205.629
G1 X137.985Y205.739
G1 X137.636Y205.919
G1 X137.333Y206.159
G1 X137.084Y206.451
G1 X136.895Y206.785
G1 X136.772Y207.152
G1 X136.723Y207.542
G1 X136.753Y207.946
G1 X142.695Y241.646
G1 X142.761Y241.937
G1 X142.855Y242.218
G1 X142.976Y242.487
G1 X143.122Y242.742
G1 X143.293Y242.981
G1 X143.486Y243.204
G1 X143.702Y243.407
G1 X143.938Y243.589
G1 X144.191Y243.747
G1 X144.457Y243.878
G1 X144.733Y243.982
G1 X145.017Y244.058
G1 X145.307Y244.105
G1 X145.601Y244.125
G1 X145.897Y244.115
G1 X146.193Y244.075
G1 X177.681Y238.279
G1 X177.983Y238.239
G1 X178.281Y238.229
G1 X178.575Y238.249
G1 X178.862Y238.297
G1 X179.141Y238.372
G1 X179.41Y238.473
G1 X179.667Y238.599
G1 X179.91Y238.748
G1 X180.138Y238.919
G1 X180.35Y239.112
G1 X180.543Y239.325
G1 X180.715Y239.556
G1 X180.866Y239.805
G1 X180.992Y240.071
G1 X181.093Y240.352
G1 X181.167Y240.647
G1 X185.114Y260.611
G1 X185.772Y261.299
G1 X199.957Y258.798
G1 X200.239Y258.769
G1 X200.517Y258.779
G1 X200.789Y258.828
G1 X201.051Y258.912
G1 X201.298Y259.032
G1 X201.528Y259.186
G1 X201.736Y259.371
G1 X201.919Y259.587
G1 X203.581Y261.86
G1 X203.763Y262.076
G1 X203.972Y262.262
G1 X204.201Y262.415
G1 X204.449Y262.535
G1 X204.71Y262.62
G1 X204.982Y262.668
G1 X205.261Y262.679
G1 X205.542Y262.649
G1 X222.976Y259.575
G1 X223.25Y259.507
G1 X223.508Y259.402
G1 X223.747Y259.263
G1 X223.964Y259.094
G1 X224.156Y258.897
G1 X224.319Y258.674
G1 X224.451Y258.428
G1 X224.549Y258.163
G1 X225.333Y255.459
G1 X225.431Y255.193
G1 X225.563Y254.948
G1 X225.727Y254.725
G1 X225.918Y254.528
G1 X226.135Y254.358
G1 X226.374Y254.22
G1 X226.632Y254.115
G1 X226.907Y254.046
G1 X240.86Y251.586
G1 X241.134Y251.517
G1 X241.393Y251.412
G1 X241.632Y251.274
G1 X241.849Y251.105
G1 X242.04Y250.907
G1 X242.204Y250.685
G1 X242.336Y250.439
G1 X242.433Y250.173
G1 X243.218Y247.469
G1 X243.316Y247.204
G1 X243.448Y246.958
G1 X243.611Y246.735
G1 X243.803Y246.538
G1 X244.019Y246.369
G1 X244.259Y246.23
G1 X244.517Y246.125
G1 X244.791Y246.057
G1 X258.001Y243.728
G1 X258.391Y243.618
G1 X258.741Y243.438
G1 X259.043Y243.197
G1 X259.292Y242.905
G1 X259.481Y242.571
G1 X259.604Y242.205
G1 X259.654Y241.815
G1 X259.624Y241.411
G1 X250.012Y186.901
G1 X249.984Y186.46
G1 X250.052Y186.028
G1 X250.212Y185.622
G1 X250.46Y185.256
G1 X262.799Y170.791
M9
G1 S0
M5
G90
; return to user-defined finish pos
G0 X0Y0
M2
