; LightBurn 1.7.08
; GRBL device profile, absolute coords
; Bounds: X111.72 Y115.57 to X280.78 Y295.43
G00 G17 G40 G21 G54
G90
M4
; Cut @ 12 mm/sec, 90% power
M8
G0 X122.119Y174.845
; Layer C00 Pass 1 of 2
G1 X117.709Y175.622S900F720
G1 X116.841Y170.698
G1 X126.689Y168.962
G1 X127.557Y173.886
G1 X123.147Y174.663
G1 X123.665Y174.721
G1 X124.15Y174.87
G1 X124.593Y175.102
G1 X124.984Y175.408
G1 X125.315Y175.78
G1 X125.574Y176.207
G1 X125.753Y176.682
G1 X125.843Y177.196
G1 X125.835Y177.717
G1 X125.733Y178.214
G1 X125.544Y178.677
G1 X125.277Y179.096
G1 X124.938Y179.46
G1 X124.538Y179.759
G1 X124.082Y179.983
G1 X123.579Y180.121
G1 X123.06Y180.163
G1 X122.555Y180.108
G1 X122.076Y179.965
G1 X121.634Y179.738
G1 X121.239Y179.436
G1 X120.903Y179.066
G1 X120.637Y178.634
G1 X120.451Y178.146
G1 X120.36Y177.633
G1 X120.366Y177.126
G1 X120.464Y176.635
G1 X120.647Y176.173
G1 X120.91Y175.752
G1 X121.247Y175.382
G1 X121.652Y175.076
G1 X122.119Y174.845
; Layer C00 Pass 2 of 2
G1 X117.709Y175.622
G1 X116.841Y170.698
G1 X126.689Y168.962
G1 X127.557Y173.886
G1 X123.147Y174.663
G1 X123.665Y174.721
G1 X124.15Y174.87
G1 X124.593Y175.102
G1 X124.984Y175.408
G1 X125.315Y175.78
G1 X125.574Y176.207
G1 X125.753Y176.682
G1 X125.843Y177.196
G1 X125.835Y177.717
G1 X125.733Y178.214
G1 X125.544Y178.677
G1 X125.277Y179.096
G1 X124.938Y179.46
G1 X124.538Y179.759
G1 X124.082Y179.983
G1 X123.579Y180.121
G1 X123.06Y180.163
G1 X122.555Y180.108
G1 X122.076Y179.965
G1 X121.634Y179.738
G1 X121.239Y179.436
G1 X120.903Y179.066
G1 X120.637Y178.634
G1 X120.451Y178.146
G1 X120.36Y177.633
G1 X120.366Y177.126
G1 X120.464Y176.635
G1 X120.647Y176.173
G1 X120.91Y175.752
G1 X121.247Y175.382
G1 X121.652Y175.076
G1 X122.119Y174.845
G0 X133.921Y172.015
; Layer C00 Pass 1 of 2
G1 X133.877Y171.582
G1 X133.752Y171.179
G1 X133.554Y170.813
G1 X133.291Y170.495
G1 X132.973Y170.233
G1 X132.608Y170.034
G1 X132.204Y169.909
G1 X131.771Y169.865
G1 X131.338Y169.909
G1 X130.934Y170.034
G1 X130.569Y170.233
G1 X130.251Y170.495
G1 X129.988Y170.813
G1 X129.79Y171.179
G1 X129.665Y171.582
G1 X129.621Y172.015
G1 X129.665Y172.449
G1 X129.79Y172.852
G1 X129.988Y173.218
G1 X130.251Y173.536
G1 X130.569Y173.798
G1 X130.934Y173.996
G1 X131.338Y174.122
G1 X131.771Y174.165
G1 X132.204Y174.122
G1 X132.608Y173.996
G1 X132.973Y173.798
G1 X133.291Y173.536
G1 X133.554Y173.218
G1 X133.752Y172.852
G1 X133.877Y172.449
G1 X133.921Y172.015
; Layer C00 Pass 2 of 2
G1 X133.877Y171.582
G1 X133.752Y171.179
G1 X133.554Y170.813
G1 X133.291Y170.495
G1 X132.973Y170.233
G1 X132.608Y170.034
G1 X132.204Y169.909
G1 X131.771Y169.865
G1 X131.338Y169.909
G1 X130.934Y170.034
G1 X130.569Y170.233
G1 X130.251Y170.495
G1 X129.988Y170.813
G1 X129.79Y171.179
G1 X129.665Y171.582
G1 X129.621Y172.015
G1 X129.665Y172.449
G1 X129.79Y172.852
G1 X129.988Y173.218
G1 X130.251Y173.536
G1 X130.569Y173.798
G1 X130.934Y173.996
G1 X131.338Y174.122
G1 X131.771Y174.165
G1 X132.204Y174.122
G1 X132.608Y173.996
G1 X132.973Y173.798
G1 X133.291Y173.536
G1 X133.554Y173.218
G1 X133.752Y172.852
G1 X133.877Y172.449
G1 X133.921Y172.015
G0 X140.83Y171.545
; Layer C00 Pass 1 of 2
G1 X136.42Y172.323
G1 X135.552Y167.399
G1 X145.4Y165.662
G1 X146.268Y170.586
G1 X141.858Y171.364
G1 X142.376Y171.421
G1 X142.862Y171.571
G1 X143.305Y171.803
G1 X143.696Y172.109
G1 X144.026Y172.48
G1 X144.285Y172.908
G1 X144.465Y173.383
G1 X144.555Y173.896
G1 X144.547Y174.418
G1 X144.444Y174.915
G1 X144.255Y175.378
G1 X143.988Y175.797
G1 X143.65Y176.161
G1 X143.249Y176.46
G1 X142.793Y176.683
G1 X142.291Y176.822
G1 X141.771Y176.864
G1 X141.266Y176.809
G1 X140.787Y176.665
G1 X140.345Y176.439
G1 X139.951Y176.137
G1 X139.615Y175.766
G1 X139.348Y175.334
G1 X139.163Y174.847
G1 X139.072Y174.334
G1 X139.078Y173.826
G1 X139.175Y173.336
G1 X139.358Y172.874
G1 X139.621Y172.452
G1 X139.958Y172.083
G1 X140.363Y171.776
G1 X140.83Y171.545
; Layer C00 Pass 2 of 2
G1 X136.42Y172.323
G1 X135.552Y167.399
G1 X145.4Y165.662
G1 X146.268Y170.586
G1 X141.858Y171.364
G1 X142.376Y171.421
G1 X142.862Y171.571
G1 X143.305Y171.803
G1 X143.696Y172.109
G1 X144.026Y172.48
G1 X144.285Y172.908
G1 X144.465Y173.383
G1 X144.555Y173.896
G1 X144.547Y174.418
G1 X144.444Y174.915
G1 X144.255Y175.378
G1 X143.988Y175.797
G1 X143.65Y176.161
G1 X143.249Y176.46
G1 X142.793Y176.683
G1 X142.291Y176.822
G1 X141.771Y176.864
G1 X141.266Y176.809
G1 X140.787Y176.665
G1 X140.345Y176.439
G1 X139.951Y176.137
G1 X139.615Y175.766
G1 X139.348Y175.334
G1 X139.163Y174.847
G1 X139.072Y174.334
G1 X139.078Y173.826
G1 X139.175Y173.336
G1 X139.358Y172.874
G1 X139.621Y172.452
G1 X139.958Y172.083
G1 X140.363Y171.776
G1 X140.83Y171.545
G0 X140.653Y181.934
; Layer C00 Pass 1 of 2
G1 X137.699Y182.455
G1 X136.831Y177.531
G1 X139.785Y177.01
G1 X140.653Y181.934
; Layer C00 Pass 2 of 2
G1 X137.699Y182.455
G1 X136.831Y177.531
G1 X139.785Y177.01
G1 X140.653Y181.934
G0 X144.138Y190.306
; Layer C00 Pass 1 of 2
G1 X139.728Y191.083
G1 X138.86Y186.159
G1 X148.708Y184.423
G1 X149.576Y189.347
G1 X145.166Y190.125
G1 X145.684Y190.182
G1 X146.17Y190.331
G1 X146.613Y190.564
G1 X147.004Y190.87
G1 X147.334Y191.241
G1 X147.593Y191.669
G1 X147.773Y192.143
G1 X147.862Y192.657
G1 X147.855Y193.178
G1 X147.752Y193.676
G1 X147.563Y194.139
G1 X147.296Y194.557
G1 X146.958Y194.921
G1 X146.557Y195.22
G1 X146.101Y195.444
G1 X145.599Y195.582
G1 X145.079Y195.624
G1 X144.574Y195.57
G1 X144.095Y195.426
G1 X143.653Y195.2
G1 X143.259Y194.898
G1 X142.923Y194.527
G1 X142.656Y194.095
G1 X142.471Y193.608
G1 X142.38Y193.094
G1 X142.386Y192.587
G1 X142.483Y192.096
G1 X142.666Y191.635
G1 X142.929Y191.213
G1 X143.266Y190.843
G1 X143.671Y190.537
G1 X144.138Y190.306
; Layer C00 Pass 2 of 2
G1 X139.728Y191.083
G1 X138.86Y186.159
G1 X148.708Y184.423
G1 X149.576Y189.347
G1 X145.166Y190.125
G1 X145.684Y190.182
G1 X146.17Y190.331
G1 X146.613Y190.564
G1 X147.004Y190.87
G1 X147.334Y191.241
G1 X147.593Y191.669
G1 X147.773Y192.143
G1 X147.862Y192.657
G1 X147.855Y193.178
G1 X147.752Y193.676
G1 X147.563Y194.139
G1 X147.296Y194.557
G1 X146.958Y194.921
G1 X146.557Y195.22
G1 X146.101Y195.444
G1 X145.599Y195.582
G1 X145.079Y195.624
G1 X144.574Y195.57
G1 X144.095Y195.426
G1 X143.653Y195.2
G1 X143.259Y194.898
G1 X142.923Y194.527
G1 X142.656Y194.095
G1 X142.471Y193.608
G1 X142.38Y193.094
G1 X142.386Y192.587
G1 X142.483Y192.096
G1 X142.666Y191.635
G1 X142.929Y191.213
G1 X143.266Y190.843
G1 X143.671Y190.537
G1 X144.138Y190.306
G0 X138.552Y198.28
; Layer C00 Pass 1 of 2
G1 X138.509Y197.847
G1 X138.383Y197.443
G1 X138.185Y197.078
G1 X137.923Y196.76
G1 X137.604Y196.497
G1 X137.239Y196.299
G1 X136.836Y196.174
G1 X136.402Y196.13
G1 X135.969Y196.174
G1 X135.566Y196.299
G1 X135.2Y196.497
G1 X134.882Y196.76
G1 X134.62Y197.078
G1 X134.421Y197.443
G1 X134.296Y197.847
G1 X134.252Y198.28
G1 X134.296Y198.714
G1 X134.421Y199.117
G1 X134.62Y199.482
G1 X134.882Y199.801
G1 X135.2Y200.063
G1 X135.566Y200.261
G1 X135.969Y200.387
G1 X136.402Y200.43
G1 X136.836Y200.387
G1 X137.239Y200.261
G1 X137.604Y200.063
G1 X137.923Y199.801
G1 X138.185Y199.482
G1 X138.383Y199.117
G1 X138.509Y198.714
G1 X138.552Y198.28
; Layer C00 Pass 2 of 2
G1 X138.509Y197.847
G1 X138.383Y197.443
G1 X138.185Y197.078
G1 X137.923Y196.76
G1 X137.604Y196.497
G1 X137.239Y196.299
G1 X136.836Y196.174
G1 X136.402Y196.13
G1 X135.969Y196.174
G1 X135.566Y196.299
G1 X135.2Y196.497
G1 X134.882Y196.76
G1 X134.62Y197.078
G1 X134.421Y197.443
G1 X134.296Y197.847
G1 X134.252Y198.28
G1 X134.296Y198.714
G1 X134.421Y199.117
G1 X134.62Y199.482
G1 X134.882Y199.801
G1 X135.2Y200.063
G1 X135.566Y200.261
G1 X135.969Y200.387
G1 X136.402Y200.43
G1 X136.836Y200.387
G1 X137.239Y200.261
G1 X137.604Y200.063
G1 X137.923Y199.801
G1 X138.185Y199.482
G1 X138.383Y199.117
G1 X138.509Y198.714
G1 X138.552Y198.28
G0 X141.007Y201.215
; Layer C00 Pass 1 of 2
G1 X143.961Y200.694
G1 X143.093Y195.77
G1 X140.139Y196.291
G1 X141.007Y201.215
; Layer C00 Pass 2 of 2
G1 X143.961Y200.694
G1 X143.093Y195.77
G1 X140.139Y196.291
G1 X141.007Y201.215
G0 X125.427Y193.605
; Layer C00 Pass 1 of 2
G1 X121.017Y194.383
G1 X120.149Y189.459
G1 X129.997Y187.722
G1 X130.865Y192.646
G1 X126.455Y193.424
G1 X126.973Y193.481
G1 X127.458Y193.631
G1 X127.901Y193.863
G1 X128.292Y194.169
G1 X128.623Y194.54
G1 X128.882Y194.968
G1 X129.061Y195.443
G1 X129.151Y195.956
G1 X129.143Y196.478
G1 X129.041Y196.975
G1 X128.852Y197.438
G1 X128.585Y197.856
G1 X128.246Y198.22
G1 X127.846Y198.519
G1 X127.39Y198.743
G1 X126.887Y198.882
G1 X126.368Y198.923
G1 X125.863Y198.869
G1 X125.384Y198.725
G1 X124.942Y198.499
G1 X124.547Y198.197
G1 X124.211Y197.826
G1 X123.945Y197.394
G1 X123.759Y196.907
G1 X123.668Y196.394
G1 X123.674Y195.886
G1 X123.772Y195.396
G1 X123.955Y194.934
G1 X124.218Y194.512
G1 X124.555Y194.143
G1 X124.96Y193.836
G1 X125.427Y193.605
; Layer C00 Pass 2 of 2
G1 X121.017Y194.383
G1 X120.149Y189.459
G1 X129.997Y187.722
G1 X130.865Y192.646
G1 X126.455Y193.424
G1 X126.973Y193.481
G1 X127.458Y193.631
G1 X127.901Y193.863
G1 X128.292Y194.169
G1 X128.623Y194.54
G1 X128.882Y194.968
G1 X129.061Y195.443
G1 X129.151Y195.956
G1 X129.143Y196.478
G1 X129.041Y196.975
G1 X128.852Y197.438
G1 X128.585Y197.856
G1 X128.246Y198.22
G1 X127.846Y198.519
G1 X127.39Y198.743
G1 X126.887Y198.882
G1 X126.368Y198.923
G1 X125.863Y198.869
G1 X125.384Y198.725
G1 X124.942Y198.499
G1 X124.547Y198.197
G1 X124.211Y197.826
G1 X123.945Y197.394
G1 X123.759Y196.907
G1 X123.668Y196.394
G1 X123.674Y195.886
G1 X123.772Y195.396
G1 X123.955Y194.934
G1 X124.218Y194.512
G1 X124.555Y194.143
G1 X124.96Y193.836
G1 X125.427Y193.605
G0 X121.942Y185.233
; Layer C00 Pass 1 of 2
G1 X118.988Y185.754
G1 X118.119Y180.83
G1 X121.074Y180.309
G1 X121.942Y185.233
; Layer C00 Pass 2 of 2
G1 X118.988Y185.754
G1 X118.119Y180.83
G1 X121.074Y180.309
G1 X121.942Y185.233
G0 X122.296Y204.515
; Layer C00 Pass 1 of 2
G1 X125.25Y203.994
G1 X124.382Y199.07
G1 X121.427Y199.591
G1 X122.296Y204.515
; Layer C00 Pass 2 of 2
G1 X125.25Y203.994
G1 X124.382Y199.07
G1 X121.427Y199.591
G1 X122.296Y204.515
G0 X160.545Y202.606
; Layer C00 Pass 1 of 2
G1 X163.5Y202.085
G1 X162.632Y197.161
G1 X159.677Y197.682
G1 X160.545Y202.606
; Layer C00 Pass 2 of 2
G1 X163.5Y202.085
G1 X162.632Y197.161
G1 X159.677Y197.682
G1 X160.545Y202.606
G0 X166.984Y210.457
; Layer C00 Pass 1 of 2
G1 X162.575Y211.235
G1 X161.706Y206.311
G1 X171.554Y204.574
G1 X172.423Y209.498
G1 X168.013Y210.276
G1 X168.531Y210.333
G1 X169.016Y210.483
G1 X169.459Y210.715
G1 X169.85Y211.021
G1 X170.18Y211.392
G1 X170.44Y211.82
G1 X170.619Y212.295
G1 X170.709Y212.808
G1 X170.701Y213.33
G1 X170.599Y213.827
G1 X170.41Y214.29
G1 X170.142Y214.709
G1 X169.804Y215.073
G1 X169.403Y215.372
G1 X168.948Y215.595
G1 X168.445Y215.734
G1 X167.925Y215.776
G1 X167.421Y215.721
G1 X166.942Y215.577
G1 X166.499Y215.351
G1 X166.105Y215.049
G1 X165.769Y214.678
G1 X165.503Y214.246
G1 X165.317Y213.759
G1 X165.226Y213.246
G1 X165.232Y212.738
G1 X165.33Y212.248
G1 X165.513Y211.786
G1 X165.776Y211.364
G1 X166.112Y210.995
G1 X166.517Y210.689
G1 X166.984Y210.457
; Layer C00 Pass 2 of 2
G1 X162.575Y211.235
G1 X161.706Y206.311
G1 X171.554Y204.574
G1 X172.423Y209.498
G1 X168.013Y210.276
G1 X168.531Y210.333
G1 X169.016Y210.483
G1 X169.459Y210.715
G1 X169.85Y211.021
G1 X170.18Y211.392
G1 X170.44Y211.82
G1 X170.619Y212.295
G1 X170.709Y212.808
G1 X170.701Y213.33
G1 X170.599Y213.827
G1 X170.41Y214.29
G1 X170.142Y214.709
G1 X169.804Y215.073
G1 X169.403Y215.372
G1 X168.948Y215.595
G1 X168.445Y215.734
G1 X167.925Y215.776
G1 X167.421Y215.721
G1 X166.942Y215.577
G1 X166.499Y215.351
G1 X166.105Y215.049
G1 X165.769Y214.678
G1 X165.503Y214.246
G1 X165.317Y213.759
G1 X165.226Y213.246
G1 X165.232Y212.738
G1 X165.33Y212.248
G1 X165.513Y211.786
G1 X165.776Y211.364
G1 X166.112Y210.995
G1 X166.517Y210.689
G1 X166.984Y210.457
G0 X163.853Y221.367
; Layer C00 Pass 1 of 2
G1 X166.808Y220.846
G1 X165.94Y215.922
G1 X162.985Y216.443
G1 X163.853Y221.367
; Layer C00 Pass 2 of 2
G1 X166.808Y220.846
G1 X165.94Y215.922
G1 X162.985Y216.443
G1 X163.853Y221.367
G0 X183.392Y222.758
; Layer C00 Pass 1 of 2
G1 X186.346Y222.237
G1 X185.478Y217.313
G1 X182.523Y217.833
G1 X183.392Y222.758
; Layer C00 Pass 2 of 2
G1 X186.346Y222.237
G1 X185.478Y217.313
G1 X182.523Y217.833
G1 X183.392Y222.758
G0 X186.523Y211.848
; Layer C00 Pass 1 of 2
G1 X182.113Y212.626
G1 X181.245Y207.702
G1 X191.093Y205.965
G1 X191.961Y210.889
G1 X187.551Y211.667
G1 X188.069Y211.724
G1 X188.554Y211.874
G1 X188.997Y212.106
G1 X189.389Y212.412
G1 X189.719Y212.783
G1 X189.978Y213.211
G1 X190.157Y213.686
G1 X190.247Y214.199
G1 X190.239Y214.72
G1 X190.137Y215.218
G1 X189.948Y215.681
G1 X189.681Y216.099
G1 X189.342Y216.463
G1 X188.942Y216.762
G1 X188.486Y216.986
G1 X187.983Y217.125
G1 X187.464Y217.166
G1 X186.959Y217.112
G1 X186.48Y216.968
G1 X186.038Y216.742
G1 X185.643Y216.44
G1 X185.307Y216.069
G1 X185.041Y215.637
G1 X184.855Y215.15
G1 X184.764Y214.637
G1 X184.77Y214.129
G1 X184.868Y213.639
G1 X185.051Y213.177
G1 X185.314Y212.755
G1 X185.651Y212.386
G1 X186.056Y212.079
G1 X186.523Y211.848
; Layer C00 Pass 2 of 2
G1 X182.113Y212.626
G1 X181.245Y207.702
G1 X191.093Y205.965
G1 X191.961Y210.889
G1 X187.551Y211.667
G1 X188.069Y211.724
G1 X188.554Y211.874
G1 X188.997Y212.106
G1 X189.389Y212.412
G1 X189.719Y212.783
G1 X189.978Y213.211
G1 X190.157Y213.686
G1 X190.247Y214.199
G1 X190.239Y214.72
G1 X190.137Y215.218
G1 X189.948Y215.681
G1 X189.681Y216.099
G1 X189.342Y216.463
G1 X188.942Y216.762
G1 X188.486Y216.986
G1 X187.983Y217.125
G1 X187.464Y217.166
G1 X186.959Y217.112
G1 X186.48Y216.968
G1 X186.038Y216.742
G1 X185.643Y216.44
G1 X185.307Y216.069
G1 X185.041Y215.637
G1 X184.855Y215.15
G1 X184.764Y214.637
G1 X184.77Y214.129
G1 X184.868Y213.639
G1 X185.051Y213.177
G1 X185.314Y212.755
G1 X185.651Y212.386
G1 X186.056Y212.079
G1 X186.523Y211.848
G0 X183.038Y203.476
; Layer C00 Pass 1 of 2
G1 X180.084Y203.997
G1 X179.215Y199.073
G1 X182.17Y198.552
G1 X183.038Y203.476
; Layer C00 Pass 2 of 2
G1 X180.084Y203.997
G1 X179.215Y199.073
G1 X182.17Y198.552
G1 X183.038Y203.476
G0 X183.215Y193.087
; Layer C00 Pass 1 of 2
G1 X178.805Y193.865
G1 X177.937Y188.941
G1 X187.785Y187.205
G1 X188.653Y192.129
G1 X184.243Y192.906
G1 X184.761Y192.964
G1 X185.246Y193.113
G1 X185.689Y193.345
G1 X186.081Y193.651
G1 X186.411Y194.023
G1 X186.67Y194.45
G1 X186.849Y194.925
G1 X186.939Y195.439
G1 X186.931Y195.96
G1 X186.829Y196.457
G1 X186.64Y196.92
G1 X186.373Y197.339
G1 X186.034Y197.703
G1 X185.634Y198.002
G1 X185.178Y198.226
G1 X184.675Y198.364
G1 X184.156Y198.406
G1 X183.651Y198.351
G1 X183.172Y198.208
G1 X182.73Y197.981
G1 X182.335Y197.679
G1 X181.999Y197.309
G1 X181.733Y196.876
G1 X181.547Y196.389
G1 X181.456Y195.876
G1 X181.462Y195.368
G1 X181.56Y194.878
G1 X181.743Y194.416
G1 X182.006Y193.995
G1 X182.343Y193.625
G1 X182.748Y193.319
G1 X183.215Y193.087
; Layer C00 Pass 2 of 2
G1 X178.805Y193.865
G1 X177.937Y188.941
G1 X187.785Y187.205
G1 X188.653Y192.129
G1 X184.243Y192.906
G1 X184.761Y192.964
G1 X185.246Y193.113
G1 X185.689Y193.345
G1 X186.081Y193.651
G1 X186.411Y194.023
G1 X186.67Y194.45
G1 X186.849Y194.925
G1 X186.939Y195.439
G1 X186.931Y195.96
G1 X186.829Y196.457
G1 X186.64Y196.92
G1 X186.373Y197.339
G1 X186.034Y197.703
G1 X185.634Y198.002
G1 X185.178Y198.226
G1 X184.675Y198.364
G1 X184.156Y198.406
G1 X183.651Y198.351
G1 X183.172Y198.208
G1 X182.73Y197.981
G1 X182.335Y197.679
G1 X181.999Y197.309
G1 X181.733Y196.876
G1 X181.547Y196.389
G1 X181.456Y195.876
G1 X181.462Y195.368
G1 X181.56Y194.878
G1 X181.743Y194.416
G1 X182.006Y193.995
G1 X182.343Y193.625
G1 X182.748Y193.319
G1 X183.215Y193.087
G0 X175.81Y190.744
; Layer C00 Pass 1 of 2
G1 X175.766Y190.31
G1 X175.641Y189.907
G1 X175.443Y189.542
G1 X175.18Y189.223
G1 X174.862Y188.961
G1 X174.497Y188.763
G1 X174.093Y188.637
G1 X173.66Y188.594
G1 X173.226Y188.637
G1 X172.823Y188.763
G1 X172.458Y188.961
G1 X172.139Y189.223
G1 X171.877Y189.542
G1 X171.679Y189.907
G1 X171.553Y190.31
G1 X171.51Y190.744
G1 X171.553Y191.177
G1 X171.679Y191.58
G1 X171.877Y191.946
G1 X172.139Y192.264
G1 X172.458Y192.526
G1 X172.823Y192.725
G1 X173.226Y192.85
G1 X173.66Y192.894
G1 X174.093Y192.85
G1 X174.497Y192.725
G1 X174.862Y192.526
G1 X175.18Y192.264
G1 X175.443Y191.946
G1 X175.641Y191.58
G1 X175.766Y191.177
G1 X175.81Y190.744
; Layer C00 Pass 2 of 2
G1 X175.766Y190.31
G1 X175.641Y189.907
G1 X175.443Y189.542
G1 X175.18Y189.223
G1 X174.862Y188.961
G1 X174.497Y188.763
G1 X174.093Y188.637
G1 X173.66Y188.594
G1 X173.226Y188.637
G1 X172.823Y188.763
G1 X172.458Y188.961
G1 X172.139Y189.223
G1 X171.877Y189.542
G1 X171.679Y189.907
G1 X171.553Y190.31
G1 X171.51Y190.744
G1 X171.553Y191.177
G1 X171.679Y191.58
G1 X171.877Y191.946
G1 X172.139Y192.264
G1 X172.458Y192.526
G1 X172.823Y192.725
G1 X173.226Y192.85
G1 X173.66Y192.894
G1 X174.093Y192.85
G1 X174.497Y192.725
G1 X174.862Y192.526
G1 X175.18Y192.264
G1 X175.443Y191.946
G1 X175.641Y191.58
G1 X175.766Y191.177
G1 X175.81Y190.744
G0 X176.776Y185.236
; Layer C00 Pass 1 of 2
G1 X179.73Y184.715
G1 X178.862Y179.791
G1 X175.907Y180.312
G1 X176.776Y185.236
; Layer C00 Pass 2 of 2
G1 X179.73Y184.715
G1 X178.862Y179.791
G1 X175.907Y180.312
G1 X176.776Y185.236
G0 X163.676Y191.697
; Layer C00 Pass 1 of 2
G1 X159.267Y192.474
G1 X158.398Y187.55
G1 X168.246Y185.814
G1 X169.115Y190.738
G1 X164.705Y191.515
G1 X165.223Y191.573
G1 X165.708Y191.722
G1 X166.151Y191.954
G1 X166.542Y192.261
G1 X166.872Y192.632
G1 X167.132Y193.059
G1 X167.311Y193.534
G1 X167.401Y194.048
G1 X167.393Y194.569
G1 X167.291Y195.066
G1 X167.102Y195.529
G1 X166.834Y195.948
G1 X166.496Y196.312
G1 X166.095Y196.611
G1 X165.64Y196.835
G1 X165.137Y196.973
G1 X164.617Y197.015
G1 X164.113Y196.961
G1 X163.634Y196.817
G1 X163.191Y196.59
G1 X162.797Y196.288
G1 X162.461Y195.918
G1 X162.195Y195.486
G1 X162.009Y194.999
G1 X161.918Y194.485
G1 X161.924Y193.978
G1 X162.022Y193.487
G1 X162.205Y193.025
G1 X162.468Y192.604
G1 X162.804Y192.234
G1 X163.209Y191.928
G1 X163.676Y191.697
; Layer C00 Pass 2 of 2
G1 X159.267Y192.474
G1 X158.398Y187.55
G1 X168.246Y185.814
G1 X169.115Y190.738
G1 X164.705Y191.515
G1 X165.223Y191.573
G1 X165.708Y191.722
G1 X166.151Y191.954
G1 X166.542Y192.261
G1 X166.872Y192.632
G1 X167.132Y193.059
G1 X167.311Y193.534
G1 X167.401Y194.048
G1 X167.393Y194.569
G1 X167.291Y195.066
G1 X167.102Y195.529
G1 X166.834Y195.948
G1 X166.496Y196.312
G1 X166.095Y196.611
G1 X165.64Y196.835
G1 X165.137Y196.973
G1 X164.617Y197.015
G1 X164.113Y196.961
G1 X163.634Y196.817
G1 X163.191Y196.59
G1 X162.797Y196.288
G1 X162.461Y195.918
G1 X162.195Y195.486
G1 X162.009Y194.999
G1 X161.918Y194.485
G1 X161.924Y193.978
G1 X162.022Y193.487
G1 X162.205Y193.025
G1 X162.468Y192.604
G1 X162.804Y192.234
G1 X163.209Y191.928
G1 X163.676Y191.697
G0 X160.192Y183.325
; Layer C00 Pass 1 of 2
G1 X157.237Y183.845
G1 X156.369Y178.921
G1 X159.324Y178.401
G1 X160.192Y183.325
; Layer C00 Pass 2 of 2
G1 X157.237Y183.845
G1 X156.369Y178.921
G1 X159.324Y178.401
G1 X160.192Y183.325
G0 X161.397Y172.755
; Layer C00 Pass 1 of 2
G1 X165.807Y171.977
G1 X164.938Y167.053
G1 X155.09Y168.79
G1 X155.959Y173.714
G1 X160.368Y172.936
G1 X159.901Y173.167
G1 X159.496Y173.474
G1 X159.16Y173.843
G1 X158.897Y174.265
G1 X158.714Y174.727
G1 X158.616Y175.217
G1 X158.61Y175.725
G1 X158.701Y176.238
G1 X158.887Y176.725
G1 X159.153Y177.157
G1 X159.489Y177.528
G1 X159.883Y177.83
G1 X160.326Y178.056
G1 X160.805Y178.2
G1 X161.309Y178.254
G1 X161.829Y178.213
G1 X162.332Y178.074
G1 X162.787Y177.85
G1 X163.188Y177.551
G1 X163.526Y177.187
G1 X163.794Y176.769
G1 X163.983Y176.306
G1 X164.085Y175.808
G1 X164.093Y175.287
G1 X164.003Y174.774
G1 X163.824Y174.299
G1 X163.564Y173.871
G1 X163.234Y173.5
G1 X162.843Y173.194
G1 X162.4Y172.962
G1 X161.915Y172.812
G1 X161.397Y172.755
; Layer C00 Pass 2 of 2
G1 X165.807Y171.977
G1 X164.938Y167.053
G1 X155.09Y168.79
G1 X155.959Y173.714
G1 X160.368Y172.936
G1 X159.901Y173.167
G1 X159.496Y173.474
G1 X159.16Y173.843
G1 X158.897Y174.265
G1 X158.714Y174.727
G1 X158.616Y175.217
G1 X158.61Y175.725
G1 X158.701Y176.238
G1 X158.887Y176.725
G1 X159.153Y177.157
G1 X159.489Y177.528
G1 X159.883Y177.83
G1 X160.326Y178.056
G1 X160.805Y178.2
G1 X161.309Y178.254
G1 X161.829Y178.213
G1 X162.332Y178.074
G1 X162.787Y177.85
G1 X163.188Y177.551
G1 X163.526Y177.187
G1 X163.794Y176.769
G1 X163.983Y176.306
G1 X164.085Y175.808
G1 X164.093Y175.287
G1 X164.003Y174.774
G1 X163.824Y174.299
G1 X163.564Y173.871
G1 X163.234Y173.5
G1 X162.843Y173.194
G1 X162.4Y172.962
G1 X161.915Y172.812
G1 X161.397Y172.755
G0 X179.907Y174.327
; Layer C00 Pass 1 of 2
G1 X175.497Y175.104
G1 X174.629Y170.18
G1 X184.477Y168.444
G1 X185.345Y173.368
G1 X180.935Y174.146
G1 X181.453Y174.203
G1 X181.938Y174.352
G1 X182.381Y174.585
G1 X182.773Y174.891
G1 X183.103Y175.262
G1 X183.362Y175.69
G1 X183.541Y176.165
G1 X183.631Y176.678
G1 X183.623Y177.199
G1 X183.521Y177.697
G1 X183.332Y178.16
G1 X183.065Y178.578
G1 X182.726Y178.942
G1 X182.326Y179.241
G1 X181.87Y179.465
G1 X181.367Y179.603
G1 X180.848Y179.645
G1 X180.343Y179.591
G1 X179.864Y179.447
G1 X179.422Y179.221
G1 X179.027Y178.919
G1 X178.691Y178.548
G1 X178.425Y178.116
G1 X178.239Y177.629
G1 X178.148Y177.116
G1 X178.154Y176.608
G1 X178.252Y176.117
G1 X178.435Y175.656
G1 X178.698Y175.234
G1 X179.035Y174.864
G1 X179.44Y174.558
G1 X179.907Y174.327
; Layer C00 Pass 2 of 2
G1 X175.497Y175.104
G1 X174.629Y170.18
G1 X184.477Y168.444
G1 X185.345Y173.368
G1 X180.935Y174.146
G1 X181.453Y174.203
G1 X181.938Y174.352
G1 X182.381Y174.585
G1 X182.773Y174.891
G1 X183.103Y175.262
G1 X183.362Y175.69
G1 X183.541Y176.165
G1 X183.631Y176.678
G1 X183.623Y177.199
G1 X183.521Y177.697
G1 X183.332Y178.16
G1 X183.065Y178.578
G1 X182.726Y178.942
G1 X182.326Y179.241
G1 X181.87Y179.465
G1 X181.367Y179.603
G1 X180.848Y179.645
G1 X180.343Y179.591
G1 X179.864Y179.447
G1 X179.422Y179.221
G1 X179.027Y178.919
G1 X178.691Y178.548
G1 X178.425Y178.116
G1 X178.239Y177.629
G1 X178.148Y177.116
G1 X178.154Y176.608
G1 X178.252Y176.117
G1 X178.435Y175.656
G1 X178.698Y175.234
G1 X179.035Y174.864
G1 X179.44Y174.558
G1 X179.907Y174.327
G0 X194.66Y177.247
; Layer C00 Pass 1 of 2
G1 X197.614Y176.726
G1 X196.746Y171.802
G1 X193.792Y172.323
G1 X194.66Y177.247
; Layer C00 Pass 2 of 2
G1 X197.614Y176.726
G1 X196.746Y171.802
G1 X193.792Y172.323
G1 X194.66Y177.247
G0 X201.099Y185.098
; Layer C00 Pass 1 of 2
G1 X196.689Y185.876
G1 X195.821Y180.952
G1 X205.669Y179.215
G1 X206.537Y184.139
G1 X202.127Y184.917
G1 X202.645Y184.974
G1 X203.131Y185.124
G1 X203.574Y185.356
G1 X203.965Y185.662
G1 X204.295Y186.033
G1 X204.554Y186.461
G1 X204.734Y186.936
G1 X204.824Y187.449
G1 X204.816Y187.97
G1 X204.713Y188.468
G1 X204.524Y188.931
G1 X204.257Y189.349
G1 X203.919Y189.713
G1 X203.518Y190.012
G1 X203.062Y190.236
G1 X202.56Y190.375
G1 X202.04Y190.416
G1 X201.535Y190.362
G1 X201.056Y190.218
G1 X200.614Y189.992
G1 X200.22Y189.69
G1 X199.884Y189.319
G1 X199.617Y188.887
G1 X199.432Y188.4
G1 X199.341Y187.887
G1 X199.347Y187.379
G1 X199.444Y186.889
G1 X199.627Y186.427
G1 X199.89Y186.005
G1 X200.227Y185.636
G1 X200.632Y185.329
G1 X201.099Y185.098
; Layer C00 Pass 2 of 2
G1 X196.689Y185.876
G1 X195.821Y180.952
G1 X205.669Y179.215
G1 X206.537Y184.139
G1 X202.127Y184.917
G1 X202.645Y184.974
G1 X203.131Y185.124
G1 X203.574Y185.356
G1 X203.965Y185.662
G1 X204.295Y186.033
G1 X204.554Y186.461
G1 X204.734Y186.936
G1 X204.824Y187.449
G1 X204.816Y187.97
G1 X204.713Y188.468
G1 X204.524Y188.931
G1 X204.257Y189.349
G1 X203.919Y189.713
G1 X203.518Y190.012
G1 X203.062Y190.236
G1 X202.56Y190.375
G1 X202.04Y190.416
G1 X201.535Y190.362
G1 X201.056Y190.218
G1 X200.614Y189.992
G1 X200.22Y189.69
G1 X199.884Y189.319
G1 X199.617Y188.887
G1 X199.432Y188.4
G1 X199.341Y187.887
G1 X199.347Y187.379
G1 X199.444Y186.889
G1 X199.627Y186.427
G1 X199.89Y186.005
G1 X200.227Y185.636
G1 X200.632Y185.329
G1 X201.099Y185.098
G0 X215.852Y188.018
; Layer C00 Pass 1 of 2
G1 X218.807Y187.497
G1 X217.939Y182.573
G1 X214.984Y183.094
G1 X215.852Y188.018
; Layer C00 Pass 2 of 2
G1 X218.807Y187.497
G1 X217.939Y182.573
G1 X214.984Y183.094
G1 X215.852Y188.018
G0 X223.32Y195.688
; Layer C00 Pass 1 of 2
G1 X227.73Y194.91
G1 X226.861Y189.986
G1 X217.013Y191.723
G1 X217.882Y196.647
G1 X222.292Y195.869
G1 X221.824Y196.1
G1 X221.419Y196.407
G1 X221.083Y196.776
G1 X220.82Y197.198
G1 X220.637Y197.66
G1 X220.539Y198.15
G1 X220.533Y198.658
G1 X220.624Y199.171
G1 X220.81Y199.658
G1 X221.076Y200.09
G1 X221.412Y200.461
G1 X221.806Y200.763
G1 X222.249Y200.989
G1 X222.728Y201.133
G1 X223.232Y201.188
G1 X223.752Y201.146
G1 X224.255Y201.007
G1 X224.71Y200.783
G1 X225.111Y200.484
G1 X225.449Y200.121
G1 X225.717Y199.702
G1 X225.906Y199.239
G1 X226.008Y198.742
G1 X226.016Y198.22
G1 X225.926Y197.707
G1 X225.747Y197.232
G1 X225.487Y196.804
G1 X225.157Y196.433
G1 X224.766Y196.127
G1 X224.323Y195.895
G1 X223.838Y195.745
G1 X223.32Y195.688
; Layer C00 Pass 2 of 2
G1 X227.73Y194.91
G1 X226.861Y189.986
G1 X217.013Y191.723
G1 X217.882Y196.647
G1 X222.292Y195.869
G1 X221.824Y196.1
G1 X221.419Y196.407
G1 X221.083Y196.776
G1 X220.82Y197.198
G1 X220.637Y197.66
G1 X220.539Y198.15
G1 X220.533Y198.658
G1 X220.624Y199.171
G1 X220.81Y199.658
G1 X221.076Y200.09
G1 X221.412Y200.461
G1 X221.806Y200.763
G1 X222.249Y200.989
G1 X222.728Y201.133
G1 X223.232Y201.188
G1 X223.752Y201.146
G1 X224.255Y201.007
G1 X224.71Y200.783
G1 X225.111Y200.484
G1 X225.449Y200.121
G1 X225.717Y199.702
G1 X225.906Y199.239
G1 X226.008Y198.742
G1 X226.016Y198.22
G1 X225.926Y197.707
G1 X225.747Y197.232
G1 X225.487Y196.804
G1 X225.157Y196.433
G1 X224.766Y196.127
G1 X224.323Y195.895
G1 X223.838Y195.745
G1 X223.32Y195.688
G0 X216.706Y203.844
; Layer C00 Pass 1 of 2
G1 X216.662Y203.41
G1 X216.537Y203.007
G1 X216.339Y202.641
G1 X216.076Y202.323
G1 X215.758Y202.061
G1 X215.393Y201.863
G1 X214.989Y201.737
G1 X214.556Y201.694
G1 X214.122Y201.737
G1 X213.719Y201.863
G1 X213.354Y202.061
G1 X213.035Y202.323
G1 X212.773Y202.641
G1 X212.575Y203.007
G1 X212.449Y203.41
G1 X212.406Y203.844
G1 X212.449Y204.277
G1 X212.575Y204.68
G1 X212.773Y205.046
G1 X213.035Y205.364
G1 X213.354Y205.626
G1 X213.719Y205.825
G1 X214.122Y205.95
G1 X214.556Y205.994
G1 X214.989Y205.95
G1 X215.393Y205.825
G1 X215.758Y205.626
G1 X216.076Y205.364
G1 X216.339Y205.046
G1 X216.537Y204.68
G1 X216.662Y204.277
G1 X216.706Y203.844
; Layer C00 Pass 2 of 2
G1 X216.662Y203.41
G1 X216.537Y203.007
G1 X216.339Y202.641
G1 X216.076Y202.323
G1 X215.758Y202.061
G1 X215.393Y201.863
G1 X214.989Y201.737
G1 X214.556Y201.694
G1 X214.122Y201.737
G1 X213.719Y201.863
G1 X213.354Y202.061
G1 X213.035Y202.323
G1 X212.773Y202.641
G1 X212.575Y203.007
G1 X212.449Y203.41
G1 X212.406Y203.844
G1 X212.449Y204.277
G1 X212.575Y204.68
G1 X212.773Y205.046
G1 X213.035Y205.364
G1 X213.354Y205.626
G1 X213.719Y205.825
G1 X214.122Y205.95
G1 X214.556Y205.994
G1 X214.989Y205.95
G1 X215.393Y205.825
G1 X215.758Y205.626
G1 X216.076Y205.364
G1 X216.339Y205.046
G1 X216.537Y204.68
G1 X216.662Y204.277
G1 X216.706Y203.844
G0 X222.115Y206.258
; Layer C00 Pass 1 of 2
G1 X219.16Y206.779
G1 X218.292Y201.855
G1 X221.247Y201.334
G1 X222.115Y206.258
; Layer C00 Pass 2 of 2
G1 X219.16Y206.779
G1 X218.292Y201.855
G1 X221.247Y201.334
G1 X222.115Y206.258
G0 X205.435Y203.677
; Layer C00 Pass 1 of 2
G1 X209.845Y202.9
G1 X208.977Y197.976
G1 X199.129Y199.712
G1 X199.997Y204.636
G1 X204.407Y203.859
G1 X203.94Y204.09
G1 X203.535Y204.396
G1 X203.198Y204.766
G1 X202.935Y205.187
G1 X202.752Y205.649
G1 X202.655Y206.14
G1 X202.649Y206.647
G1 X202.74Y207.16
G1 X202.925Y207.648
G1 X203.192Y208.08
G1 X203.528Y208.45
G1 X203.922Y208.752
G1 X204.364Y208.979
G1 X204.843Y209.122
G1 X205.348Y209.177
G1 X205.868Y209.135
G1 X206.37Y208.997
G1 X206.826Y208.773
G1 X207.227Y208.474
G1 X207.565Y208.11
G1 X207.832Y207.691
G1 X208.021Y207.228
G1 X208.124Y206.731
G1 X208.132Y206.21
G1 X208.042Y205.696
G1 X207.862Y205.221
G1 X207.603Y204.794
G1 X207.273Y204.422
G1 X206.882Y204.116
G1 X206.439Y203.884
G1 X205.953Y203.735
G1 X205.435Y203.677
; Layer C00 Pass 2 of 2
G1 X209.845Y202.9
G1 X208.977Y197.976
G1 X199.129Y199.712
G1 X199.997Y204.636
G1 X204.407Y203.859
G1 X203.94Y204.09
G1 X203.535Y204.396
G1 X203.198Y204.766
G1 X202.935Y205.187
G1 X202.752Y205.649
G1 X202.655Y206.14
G1 X202.649Y206.647
G1 X202.74Y207.16
G1 X202.925Y207.648
G1 X203.192Y208.08
G1 X203.528Y208.45
G1 X203.922Y208.752
G1 X204.364Y208.979
G1 X204.843Y209.122
G1 X205.348Y209.177
G1 X205.868Y209.135
G1 X206.37Y208.997
G1 X206.826Y208.773
G1 X207.227Y208.474
G1 X207.565Y208.11
G1 X207.832Y207.691
G1 X208.021Y207.228
G1 X208.124Y206.731
G1 X208.132Y206.21
G1 X208.042Y205.696
G1 X207.862Y205.221
G1 X207.603Y204.794
G1 X207.273Y204.422
G1 X206.882Y204.116
G1 X206.439Y203.884
G1 X205.953Y203.735
G1 X205.435Y203.677
G0 X200.922Y195.487
; Layer C00 Pass 1 of 2
G1 X197.968Y196.007
G1 X197.1Y191.083
G1 X200.054Y190.562
G1 X200.922Y195.487
; Layer C00 Pass 2 of 2
G1 X197.968Y196.007
G1 X197.1Y191.083
G1 X200.054Y190.562
G1 X200.922Y195.487
G0 X201.276Y214.768
; Layer C00 Pass 1 of 2
G1 X204.23Y214.247
G1 X203.362Y209.323
G1 X200.408Y209.844
G1 X201.276Y214.768
; Layer C00 Pass 2 of 2
G1 X204.23Y214.247
G1 X203.362Y209.323
G1 X200.408Y209.844
G1 X201.276Y214.768
G0 X203.898Y238.752
; Layer C00 Pass 1 of 2
G1 X208.308Y237.975
G1 X207.44Y233.051
G1 X197.592Y234.787
G1 X198.46Y239.711
G1 X202.87Y238.934
G1 X202.403Y239.165
G1 X201.998Y239.471
G1 X201.661Y239.841
G1 X201.398Y240.263
G1 X201.215Y240.724
G1 X201.118Y241.215
G1 X201.111Y241.722
G1 X201.203Y242.236
G1 X201.388Y242.723
G1 X201.655Y243.155
G1 X201.99Y243.526
G1 X202.385Y243.827
G1 X202.827Y244.054
G1 X203.306Y244.198
G1 X203.811Y244.252
G1 X204.331Y244.21
G1 X204.833Y244.072
G1 X205.289Y243.848
G1 X205.69Y243.549
G1 X206.028Y243.185
G1 X206.295Y242.767
G1 X206.484Y242.303
G1 X206.586Y241.806
G1 X206.594Y241.285
G1 X206.505Y240.771
G1 X206.325Y240.297
G1 X206.066Y239.869
G1 X205.736Y239.498
G1 X205.345Y239.192
G1 X204.902Y238.959
G1 X204.416Y238.81
G1 X203.898Y238.752
; Layer C00 Pass 2 of 2
G1 X208.308Y237.975
G1 X207.44Y233.051
G1 X197.592Y234.787
G1 X198.46Y239.711
G1 X202.87Y238.934
G1 X202.403Y239.165
G1 X201.998Y239.471
G1 X201.661Y239.841
G1 X201.398Y240.263
G1 X201.215Y240.724
G1 X201.118Y241.215
G1 X201.111Y241.722
G1 X201.203Y242.236
G1 X201.388Y242.723
G1 X201.655Y243.155
G1 X201.99Y243.526
G1 X202.385Y243.827
G1 X202.827Y244.054
G1 X203.306Y244.198
G1 X203.811Y244.252
G1 X204.331Y244.21
G1 X204.833Y244.072
G1 X205.289Y243.848
G1 X205.69Y243.549
G1 X206.028Y243.185
G1 X206.295Y242.767
G1 X206.484Y242.303
G1 X206.586Y241.806
G1 X206.594Y241.285
G1 X206.505Y240.771
G1 X206.325Y240.297
G1 X206.066Y239.869
G1 X205.736Y239.498
G1 X205.345Y239.192
G1 X204.902Y238.959
G1 X204.416Y238.81
G1 X203.898Y238.752
G0 X202.693Y249.322
; Layer C00 Pass 1 of 2
G1 X199.739Y249.843
G1 X198.871Y244.919
G1 X201.825Y244.398
G1 X202.693Y249.322
; Layer C00 Pass 2 of 2
G1 X199.739Y249.843
G1 X198.871Y244.919
G1 X201.825Y244.398
G1 X202.693Y249.322
G0 X206.178Y257.694
; Layer C00 Pass 1 of 2
G1 X201.768Y258.472
G1 X200.9Y253.548
G1 X210.748Y251.811
G1 X211.616Y256.735
G1 X207.206Y257.513
G1 X207.724Y257.571
G1 X208.21Y257.72
G1 X208.652Y257.952
G1 X209.044Y258.258
G1 X209.374Y258.63
G1 X209.633Y259.057
G1 X209.813Y259.532
G1 X209.902Y260.046
G1 X209.894Y260.567
G1 X209.792Y261.064
G1 X209.603Y261.527
G1 X209.336Y261.946
G1 X208.998Y262.31
G1 X208.597Y262.609
G1 X208.141Y262.833
G1 X207.639Y262.971
G1 X207.119Y263.013
G1 X206.614Y262.958
G1 X206.135Y262.814
G1 X205.693Y262.588
G1 X205.298Y262.286
G1 X204.963Y261.916
G1 X204.696Y261.483
G1 X204.511Y260.996
G1 X204.419Y260.483
G1 X204.426Y259.975
G1 X204.523Y259.485
G1 X204.706Y259.023
G1 X204.969Y258.602
G1 X205.306Y258.232
G1 X205.711Y257.926
G1 X206.178Y257.694
; Layer C00 Pass 2 of 2
G1 X201.768Y258.472
G1 X200.9Y253.548
G1 X210.748Y251.811
G1 X211.616Y256.735
G1 X207.206Y257.513
G1 X207.724Y257.571
G1 X208.21Y257.72
G1 X208.652Y257.952
G1 X209.044Y258.258
G1 X209.374Y258.63
G1 X209.633Y259.057
G1 X209.813Y259.532
G1 X209.902Y260.046
G1 X209.894Y260.567
G1 X209.792Y261.064
G1 X209.603Y261.527
G1 X209.336Y261.946
G1 X208.998Y262.31
G1 X208.597Y262.609
G1 X208.141Y262.833
G1 X207.639Y262.971
G1 X207.119Y263.013
G1 X206.614Y262.958
G1 X206.135Y262.814
G1 X205.693Y262.588
G1 X205.298Y262.286
G1 X204.963Y261.916
G1 X204.696Y261.483
G1 X204.511Y260.996
G1 X204.419Y260.483
G1 X204.426Y259.975
G1 X204.523Y259.485
G1 X204.706Y259.023
G1 X204.969Y258.602
G1 X205.306Y258.232
G1 X205.711Y257.926
G1 X206.178Y257.694
G0 X218.311Y256.741
; Layer C00 Pass 1 of 2
G1 X218.268Y256.308
G1 X218.142Y255.904
G1 X217.944Y255.539
G1 X217.681Y255.221
G1 X217.363Y254.959
G1 X216.998Y254.76
G1 X216.595Y254.635
G1 X216.161Y254.591
G1 X215.728Y254.635
G1 X215.324Y254.76
G1 X214.959Y254.959
G1 X214.641Y255.221
G1 X214.378Y255.539
G1 X214.18Y255.904
G1 X214.055Y256.308
G1 X214.011Y256.741
G1 X214.055Y257.175
G1 X214.18Y257.578
G1 X214.378Y257.943
G1 X214.641Y258.262
G1 X214.959Y258.524
G1 X215.324Y258.722
G1 X215.728Y258.848
G1 X216.161Y258.891
G1 X216.595Y258.848
G1 X216.998Y258.722
G1 X217.363Y258.524
G1 X217.681Y258.262
G1 X217.944Y257.943
G1 X218.142Y257.578
G1 X218.268Y257.175
G1 X218.311Y256.741
; Layer C00 Pass 2 of 2
G1 X218.268Y256.308
G1 X218.142Y255.904
G1 X217.944Y255.539
G1 X217.681Y255.221
G1 X217.363Y254.959
G1 X216.998Y254.76
G1 X216.595Y254.635
G1 X216.161Y254.591
G1 X215.728Y254.635
G1 X215.324Y254.76
G1 X214.959Y254.959
G1 X214.641Y255.221
G1 X214.378Y255.539
G1 X214.18Y255.904
G1 X214.055Y256.308
G1 X214.011Y256.741
G1 X214.055Y257.175
G1 X214.18Y257.578
G1 X214.378Y257.943
G1 X214.641Y258.262
G1 X214.959Y258.524
G1 X215.324Y258.722
G1 X215.728Y258.848
G1 X216.161Y258.891
G1 X216.595Y258.848
G1 X216.998Y258.722
G1 X217.363Y258.524
G1 X217.681Y258.262
G1 X217.944Y257.943
G1 X218.142Y257.578
G1 X218.268Y257.175
G1 X218.311Y256.741
G0 X225.716Y259.085
; Layer C00 Pass 1 of 2
G1 X221.306Y259.863
G1 X220.438Y254.939
G1 X230.286Y253.202
G1 X231.155Y258.126
G1 X226.745Y258.904
G1 X227.263Y258.961
G1 X227.748Y259.111
G1 X228.191Y259.343
G1 X228.582Y259.649
G1 X228.912Y260.02
G1 X229.172Y260.448
G1 X229.351Y260.923
G1 X229.441Y261.436
G1 X229.433Y261.958
G1 X229.33Y262.455
G1 X229.142Y262.918
G1 X228.874Y263.337
G1 X228.536Y263.701
G1 X228.135Y264
G1 X227.679Y264.223
G1 X227.177Y264.362
G1 X226.657Y264.404
G1 X226.152Y264.349
G1 X225.673Y264.205
G1 X225.231Y263.979
G1 X224.837Y263.677
G1 X224.501Y263.307
G1 X224.235Y262.874
G1 X224.049Y262.387
G1 X223.958Y261.874
G1 X223.964Y261.366
G1 X224.061Y260.876
G1 X224.245Y260.414
G1 X224.507Y259.992
G1 X224.844Y259.623
G1 X225.249Y259.316
G1 X225.716Y259.085
; Layer C00 Pass 2 of 2
G1 X221.306Y259.863
G1 X220.438Y254.939
G1 X230.286Y253.202
G1 X231.155Y258.126
G1 X226.745Y258.904
G1 X227.263Y258.961
G1 X227.748Y259.111
G1 X228.191Y259.343
G1 X228.582Y259.649
G1 X228.912Y260.02
G1 X229.172Y260.448
G1 X229.351Y260.923
G1 X229.441Y261.436
G1 X229.433Y261.958
G1 X229.33Y262.455
G1 X229.142Y262.918
G1 X228.874Y263.337
G1 X228.536Y263.701
G1 X228.135Y264
G1 X227.679Y264.223
G1 X227.177Y264.362
G1 X226.657Y264.404
G1 X226.152Y264.349
G1 X225.673Y264.205
G1 X225.231Y263.979
G1 X224.837Y263.677
G1 X224.501Y263.307
G1 X224.235Y262.874
G1 X224.049Y262.387
G1 X223.958Y261.874
G1 X223.964Y261.366
G1 X224.061Y260.876
G1 X224.245Y260.414
G1 X224.507Y259.992
G1 X224.844Y259.623
G1 X225.249Y259.316
G1 X225.716Y259.085
G0 X219.277Y251.234
; Layer C00 Pass 1 of 2
G1 X222.232Y250.713
G1 X221.363Y245.789
G1 X218.409Y246.31
G1 X219.277Y251.234
; Layer C00 Pass 2 of 2
G1 X222.232Y250.713
G1 X221.363Y245.789
G1 X218.409Y246.31
G1 X219.277Y251.234
G0 X222.408Y240.325
; Layer C00 Pass 1 of 2
G1 X217.998Y241.102
G1 X217.13Y236.178
G1 X226.978Y234.442
G1 X227.847Y239.366
G1 X223.437Y240.143
G1 X223.955Y240.201
G1 X224.44Y240.35
G1 X224.883Y240.582
G1 X225.274Y240.889
G1 X225.604Y241.26
G1 X225.864Y241.687
G1 X226.043Y242.162
G1 X226.133Y242.676
G1 X226.125Y243.197
G1 X226.022Y243.694
G1 X225.834Y244.157
G1 X225.566Y244.576
G1 X225.228Y244.94
G1 X224.827Y245.239
G1 X224.371Y245.463
G1 X223.869Y245.601
G1 X223.349Y245.643
G1 X222.844Y245.589
G1 X222.366Y245.445
G1 X221.923Y245.218
G1 X221.529Y244.916
G1 X221.193Y244.546
G1 X220.927Y244.114
G1 X220.741Y243.627
G1 X220.65Y243.113
G1 X220.656Y242.606
G1 X220.753Y242.115
G1 X220.937Y241.653
G1 X221.199Y241.232
G1 X221.536Y240.862
G1 X221.941Y240.556
G1 X222.408Y240.325
; Layer C00 Pass 2 of 2
G1 X217.998Y241.102
G1 X217.13Y236.178
G1 X226.978Y234.442
G1 X227.847Y239.366
G1 X223.437Y240.143
G1 X223.955Y240.201
G1 X224.44Y240.35
G1 X224.883Y240.582
G1 X225.274Y240.889
G1 X225.604Y241.26
G1 X225.864Y241.687
G1 X226.043Y242.162
G1 X226.133Y242.676
G1 X226.125Y243.197
G1 X226.022Y243.694
G1 X225.834Y244.157
G1 X225.566Y244.576
G1 X225.228Y244.94
G1 X224.827Y245.239
G1 X224.371Y245.463
G1 X223.869Y245.601
G1 X223.349Y245.643
G1 X222.844Y245.589
G1 X222.366Y245.445
G1 X221.923Y245.218
G1 X221.529Y244.916
G1 X221.193Y244.546
G1 X220.927Y244.114
G1 X220.741Y243.627
G1 X220.65Y243.113
G1 X220.656Y242.606
G1 X220.753Y242.115
G1 X220.937Y241.653
G1 X221.199Y241.232
G1 X221.536Y240.862
G1 X221.941Y240.556
G1 X222.408Y240.325
G0 X237.162Y243.245
; Layer C00 Pass 1 of 2
G1 X240.116Y242.724
G1 X239.248Y237.8
G1 X236.293Y238.321
G1 X237.162Y243.245
; Layer C00 Pass 2 of 2
G1 X240.116Y242.724
G1 X239.248Y237.8
G1 X236.293Y238.321
G1 X237.162Y243.245
G0 X243.601Y251.096
; Layer C00 Pass 1 of 2
G1 X239.191Y251.873
G1 X238.323Y246.949
G1 X248.171Y245.213
G1 X249.039Y250.137
G1 X244.629Y250.914
G1 X245.147Y250.972
G1 X245.632Y251.121
G1 X246.075Y251.353
G1 X246.466Y251.66
G1 X246.796Y252.031
G1 X247.056Y252.458
G1 X247.235Y252.933
G1 X247.325Y253.447
G1 X247.317Y253.968
G1 X247.215Y254.465
G1 X247.026Y254.928
G1 X246.758Y255.347
G1 X246.42Y255.711
G1 X246.019Y256.01
G1 X245.564Y256.234
G1 X245.061Y256.372
G1 X244.542Y256.414
G1 X244.037Y256.36
G1 X243.558Y256.216
G1 X243.116Y255.989
G1 X242.721Y255.688
G1 X242.385Y255.317
G1 X242.119Y254.885
G1 X241.933Y254.398
G1 X241.842Y253.884
G1 X241.848Y253.377
G1 X241.946Y252.886
G1 X242.129Y252.424
G1 X242.392Y252.003
G1 X242.729Y251.633
G1 X243.134Y251.327
G1 X243.601Y251.096
; Layer C00 Pass 2 of 2
G1 X239.191Y251.873
G1 X238.323Y246.949
G1 X248.171Y245.213
G1 X249.039Y250.137
G1 X244.629Y250.914
G1 X245.147Y250.972
G1 X245.632Y251.121
G1 X246.075Y251.353
G1 X246.466Y251.66
G1 X246.796Y252.031
G1 X247.056Y252.458
G1 X247.235Y252.933
G1 X247.325Y253.447
G1 X247.317Y253.968
G1 X247.215Y254.465
G1 X247.026Y254.928
G1 X246.758Y255.347
G1 X246.42Y255.711
G1 X246.019Y256.01
G1 X245.564Y256.234
G1 X245.061Y256.372
G1 X244.542Y256.414
G1 X244.037Y256.36
G1 X243.558Y256.216
G1 X243.116Y255.989
G1 X242.721Y255.688
G1 X242.385Y255.317
G1 X242.119Y254.885
G1 X241.933Y254.398
G1 X241.842Y253.884
G1 X241.848Y253.377
G1 X241.946Y252.886
G1 X242.129Y252.424
G1 X242.392Y252.003
G1 X242.729Y251.633
G1 X243.134Y251.327
G1 X243.601Y251.096
G0 X258.354Y254.016
; Layer C00 Pass 1 of 2
G1 X261.308Y253.495
G1 X260.44Y248.571
G1 X257.486Y249.092
G1 X258.354Y254.016
; Layer C00 Pass 2 of 2
G1 X261.308Y253.495
G1 X260.44Y248.571
G1 X257.486Y249.092
G1 X258.354Y254.016
G0 X265.821Y261.686
; Layer C00 Pass 1 of 2
G1 X270.231Y260.908
G1 X269.363Y255.984
G1 X259.515Y257.72
G1 X260.383Y262.644
G1 X264.793Y261.867
G1 X264.326Y262.098
G1 X263.921Y262.404
G1 X263.584Y262.774
G1 X263.321Y263.196
G1 X263.138Y263.657
G1 X263.041Y264.148
G1 X263.034Y264.656
G1 X263.126Y265.169
G1 X263.311Y265.656
G1 X263.578Y266.088
G1 X263.913Y266.459
G1 X264.308Y266.761
G1 X264.75Y266.987
G1 X265.229Y267.131
G1 X265.734Y267.185
G1 X266.254Y267.143
G1 X266.756Y267.005
G1 X267.212Y266.781
G1 X267.613Y266.482
G1 X267.951Y266.118
G1 X268.218Y265.7
G1 X268.407Y265.237
G1 X268.51Y264.739
G1 X268.517Y264.218
G1 X268.428Y263.705
G1 X268.248Y263.23
G1 X267.989Y262.802
G1 X267.659Y262.431
G1 X267.268Y262.125
G1 X266.825Y261.892
G1 X266.339Y261.743
G1 X265.821Y261.686
; Layer C00 Pass 2 of 2
G1 X270.231Y260.908
G1 X269.363Y255.984
G1 X259.515Y257.72
G1 X260.383Y262.644
G1 X264.793Y261.867
G1 X264.326Y262.098
G1 X263.921Y262.404
G1 X263.584Y262.774
G1 X263.321Y263.196
G1 X263.138Y263.657
G1 X263.041Y264.148
G1 X263.034Y264.656
G1 X263.126Y265.169
G1 X263.311Y265.656
G1 X263.578Y266.088
G1 X263.913Y266.459
G1 X264.308Y266.761
G1 X264.75Y266.987
G1 X265.229Y267.131
G1 X265.734Y267.185
G1 X266.254Y267.143
G1 X266.756Y267.005
G1 X267.212Y266.781
G1 X267.613Y266.482
G1 X267.951Y266.118
G1 X268.218Y265.7
G1 X268.407Y265.237
G1 X268.51Y264.739
G1 X268.517Y264.218
G1 X268.428Y263.705
G1 X268.248Y263.23
G1 X267.989Y262.802
G1 X267.659Y262.431
G1 X267.268Y262.125
G1 X266.825Y261.892
G1 X266.339Y261.743
G1 X265.821Y261.686
G0 X259.207Y269.841
; Layer C00 Pass 1 of 2
G1 X259.164Y269.408
G1 X259.038Y269.004
G1 X258.84Y268.639
G1 X258.578Y268.321
G1 X258.259Y268.059
G1 X257.894Y267.86
G1 X257.491Y267.735
G1 X257.057Y267.691
G1 X256.624Y267.735
G1 X256.22Y267.86
G1 X255.855Y268.059
G1 X255.537Y268.321
G1 X255.275Y268.639
G1 X255.076Y269.004
G1 X254.951Y269.408
G1 X254.907Y269.841
G1 X254.951Y270.275
G1 X255.076Y270.678
G1 X255.275Y271.043
G1 X255.537Y271.362
G1 X255.855Y271.624
G1 X256.22Y271.822
G1 X256.624Y271.948
G1 X257.057Y271.991
G1 X257.491Y271.948
G1 X257.894Y271.822
G1 X258.259Y271.624
G1 X258.578Y271.362
G1 X258.84Y271.043
G1 X259.038Y270.678
G1 X259.164Y270.275
G1 X259.207Y269.841
; Layer C00 Pass 2 of 2
G1 X259.164Y269.408
G1 X259.038Y269.004
G1 X258.84Y268.639
G1 X258.578Y268.321
G1 X258.259Y268.059
G1 X257.894Y267.86
G1 X257.491Y267.735
G1 X257.057Y267.691
G1 X256.624Y267.735
G1 X256.22Y267.86
G1 X255.855Y268.059
G1 X255.537Y268.321
G1 X255.275Y268.639
G1 X255.076Y269.004
G1 X254.951Y269.408
G1 X254.907Y269.841
G1 X254.951Y270.275
G1 X255.076Y270.678
G1 X255.275Y271.043
G1 X255.537Y271.362
G1 X255.855Y271.624
G1 X256.22Y271.822
G1 X256.624Y271.948
G1 X257.057Y271.991
G1 X257.491Y271.948
G1 X257.894Y271.822
G1 X258.259Y271.624
G1 X258.578Y271.362
G1 X258.84Y271.043
G1 X259.038Y270.678
G1 X259.164Y270.275
G1 X259.207Y269.841
G0 X264.616Y272.255
; Layer C00 Pass 1 of 2
G1 X261.662Y272.776
G1 X260.794Y267.852
G1 X263.748Y267.331
G1 X264.616Y272.255
; Layer C00 Pass 2 of 2
G1 X261.662Y272.776
G1 X260.794Y267.852
G1 X263.748Y267.331
G1 X264.616Y272.255
G0 X247.937Y269.675
; Layer C00 Pass 1 of 2
G1 X252.347Y268.897
G1 X251.479Y263.973
G1 X241.631Y265.71
G1 X242.499Y270.634
G1 X246.909Y269.856
G1 X246.442Y270.088
G1 X246.037Y270.394
G1 X245.7Y270.764
G1 X245.437Y271.185
G1 X245.254Y271.647
G1 X245.156Y272.137
G1 X245.15Y272.645
G1 X245.241Y273.158
G1 X245.427Y273.645
G1 X245.693Y274.078
G1 X246.029Y274.448
G1 X246.424Y274.75
G1 X246.866Y274.976
G1 X247.345Y275.12
G1 X247.85Y275.175
G1 X248.369Y275.133
G1 X248.872Y274.994
G1 X249.327Y274.771
G1 X249.728Y274.472
G1 X250.066Y274.108
G1 X250.334Y273.689
G1 X250.523Y273.226
G1 X250.625Y272.729
G1 X250.633Y272.208
G1 X250.543Y271.694
G1 X250.364Y271.219
G1 X250.104Y270.792
G1 X249.774Y270.42
G1 X249.383Y270.114
G1 X248.94Y269.882
G1 X248.455Y269.733
G1 X247.937Y269.675
; Layer C00 Pass 2 of 2
G1 X252.347Y268.897
G1 X251.479Y263.973
G1 X241.631Y265.71
G1 X242.499Y270.634
G1 X246.909Y269.856
G1 X246.442Y270.088
G1 X246.037Y270.394
G1 X245.7Y270.764
G1 X245.437Y271.185
G1 X245.254Y271.647
G1 X245.156Y272.137
G1 X245.15Y272.645
G1 X245.241Y273.158
G1 X245.427Y273.645
G1 X245.693Y274.078
G1 X246.029Y274.448
G1 X246.424Y274.75
G1 X246.866Y274.976
G1 X247.345Y275.12
G1 X247.85Y275.175
G1 X248.369Y275.133
G1 X248.872Y274.994
G1 X249.327Y274.771
G1 X249.728Y274.472
G1 X250.066Y274.108
G1 X250.334Y273.689
G1 X250.523Y273.226
G1 X250.625Y272.729
G1 X250.633Y272.208
G1 X250.543Y271.694
G1 X250.364Y271.219
G1 X250.104Y270.792
G1 X249.774Y270.42
G1 X249.383Y270.114
G1 X248.94Y269.882
G1 X248.455Y269.733
G1 X247.937Y269.675
G0 X243.424Y261.484
; Layer C00 Pass 1 of 2
G1 X240.47Y262.005
G1 X239.601Y257.081
G1 X242.556Y256.56
G1 X243.424Y261.484
; Layer C00 Pass 2 of 2
G1 X240.47Y262.005
G1 X239.601Y257.081
G1 X242.556Y256.56
G1 X243.424Y261.484
G0 X225.54Y269.474
; Layer C00 Pass 1 of 2
G1 X222.585Y269.995
G1 X221.717Y265.071
G1 X224.671Y264.55
G1 X225.54Y269.474
; Layer C00 Pass 2 of 2
G1 X222.585Y269.995
G1 X221.717Y265.071
G1 X224.671Y264.55
G1 X225.54Y269.474
G0 X229.024Y277.846
; Layer C00 Pass 1 of 2
G1 X224.614Y278.623
G1 X223.746Y273.699
G1 X233.594Y271.963
G1 X234.463Y276.887
G1 X230.053Y277.664
G1 X230.571Y277.722
G1 X231.056Y277.871
G1 X231.499Y278.104
G1 X231.89Y278.41
G1 X232.22Y278.781
G1 X232.48Y279.209
G1 X232.659Y279.684
G1 X232.749Y280.197
G1 X232.741Y280.718
G1 X232.638Y281.215
G1 X232.45Y281.679
G1 X232.182Y282.097
G1 X231.844Y282.461
G1 X231.443Y282.76
G1 X230.987Y282.984
G1 X230.485Y283.122
G1 X229.965Y283.164
G1 X229.46Y283.11
G1 X228.982Y282.966
G1 X228.539Y282.74
G1 X228.145Y282.438
G1 X227.809Y282.067
G1 X227.543Y281.635
G1 X227.357Y281.148
G1 X227.266Y280.634
G1 X227.272Y280.127
G1 X227.369Y279.636
G1 X227.553Y279.174
G1 X227.815Y278.753
G1 X228.152Y278.383
G1 X228.557Y278.077
G1 X229.024Y277.846
; Layer C00 Pass 2 of 2
G1 X224.614Y278.623
G1 X223.746Y273.699
G1 X233.594Y271.963
G1 X234.463Y276.887
G1 X230.053Y277.664
G1 X230.571Y277.722
G1 X231.056Y277.871
G1 X231.499Y278.104
G1 X231.89Y278.41
G1 X232.22Y278.781
G1 X232.48Y279.209
G1 X232.659Y279.684
G1 X232.749Y280.197
G1 X232.741Y280.718
G1 X232.638Y281.215
G1 X232.45Y281.679
G1 X232.182Y282.097
G1 X231.844Y282.461
G1 X231.443Y282.76
G1 X230.987Y282.984
G1 X230.485Y283.122
G1 X229.965Y283.164
G1 X229.46Y283.11
G1 X228.982Y282.966
G1 X228.539Y282.74
G1 X228.145Y282.438
G1 X227.809Y282.067
G1 X227.543Y281.635
G1 X227.357Y281.148
G1 X227.266Y280.634
G1 X227.272Y280.127
G1 X227.369Y279.636
G1 X227.553Y279.174
G1 X227.815Y278.753
G1 X228.152Y278.383
G1 X228.557Y278.077
G1 X229.024Y277.846
G0 X243.778Y280.766
; Layer C00 Pass 1 of 2
G1 X246.732Y280.245
G1 X245.864Y275.321
G1 X242.909Y275.842
G1 X243.778Y280.766
; Layer C00 Pass 2 of 2
G1 X246.732Y280.245
G1 X245.864Y275.321
G1 X242.909Y275.842
G1 X243.778Y280.766
G0 X225.893Y288.755
; Layer C00 Pass 1 of 2
G1 X228.848Y288.234
G1 X227.979Y283.31
G1 X225.025Y283.831
G1 X225.893Y288.755
; Layer C00 Pass 2 of 2
G1 X228.848Y288.234
G1 X227.979Y283.31
G1 X225.025Y283.831
G1 X225.893Y288.755
G0 X206.355Y287.364
; Layer C00 Pass 1 of 2
G1 X209.309Y286.843
G1 X208.441Y281.919
G1 X205.487Y282.44
G1 X206.355Y287.364
; Layer C00 Pass 2 of 2
G1 X209.309Y286.843
G1 X208.441Y281.919
G1 X205.487Y282.44
G1 X206.355Y287.364
G0 X209.486Y276.455
; Layer C00 Pass 1 of 2
G1 X205.076Y277.233
G1 X204.208Y272.309
G1 X214.056Y270.572
G1 X214.924Y275.496
G1 X210.514Y276.274
G1 X211.032Y276.331
G1 X211.518Y276.481
G1 X211.96Y276.713
G1 X212.352Y277.019
G1 X212.682Y277.39
G1 X212.941Y277.818
G1 X213.121Y278.293
G1 X213.21Y278.806
G1 X213.202Y279.327
G1 X213.1Y279.825
G1 X212.911Y280.288
G1 X212.644Y280.706
G1 X212.306Y281.07
G1 X211.905Y281.369
G1 X211.449Y281.593
G1 X210.947Y281.732
G1 X210.427Y281.773
G1 X209.922Y281.719
G1 X209.443Y281.575
G1 X209.001Y281.349
G1 X208.606Y281.047
G1 X208.271Y280.676
G1 X208.004Y280.244
G1 X207.819Y279.757
G1 X207.727Y279.244
G1 X207.734Y278.736
G1 X207.831Y278.245
G1 X208.014Y277.784
G1 X208.277Y277.362
G1 X208.614Y276.993
G1 X209.019Y276.686
G1 X209.486Y276.455
; Layer C00 Pass 2 of 2
G1 X205.076Y277.233
G1 X204.208Y272.309
G1 X214.056Y270.572
G1 X214.924Y275.496
G1 X210.514Y276.274
G1 X211.032Y276.331
G1 X211.518Y276.481
G1 X211.96Y276.713
G1 X212.352Y277.019
G1 X212.682Y277.39
G1 X212.941Y277.818
G1 X213.121Y278.293
G1 X213.21Y278.806
G1 X213.202Y279.327
G1 X213.1Y279.825
G1 X212.911Y280.288
G1 X212.644Y280.706
G1 X212.306Y281.07
G1 X211.905Y281.369
G1 X211.449Y281.593
G1 X210.947Y281.732
G1 X210.427Y281.773
G1 X209.922Y281.719
G1 X209.443Y281.575
G1 X209.001Y281.349
G1 X208.606Y281.047
G1 X208.271Y280.676
G1 X208.004Y280.244
G1 X207.819Y279.757
G1 X207.727Y279.244
G1 X207.734Y278.736
G1 X207.831Y278.245
G1 X208.014Y277.784
G1 X208.277Y277.362
G1 X208.614Y276.993
G1 X209.019Y276.686
G1 X209.486Y276.455
G0 X203.047Y268.604
; Layer C00 Pass 1 of 2
G1 X206.001Y268.083
G1 X205.133Y263.159
G1 X202.179Y263.68
G1 X203.047Y268.604
; Layer C00 Pass 2 of 2
G1 X206.001Y268.083
G1 X205.133Y263.159
G1 X202.179Y263.68
G1 X203.047Y268.604
G0 X183.509Y267.213
; Layer C00 Pass 1 of 2
G1 X186.463Y266.692
G1 X185.595Y261.768
G1 X182.64Y262.289
G1 X183.509Y267.213
; Layer C00 Pass 2 of 2
G1 X186.463Y266.692
G1 X185.595Y261.768
G1 X182.64Y262.289
G1 X183.509Y267.213
G0 X181.054Y264.278
; Layer C00 Pass 1 of 2
G1 X181.01Y263.845
G1 X180.885Y263.441
G1 X180.687Y263.076
G1 X180.424Y262.758
G1 X180.106Y262.495
G1 X179.741Y262.297
G1 X179.337Y262.172
G1 X178.904Y262.128
G1 X178.471Y262.172
G1 X178.067Y262.297
G1 X177.702Y262.495
G1 X177.384Y262.758
G1 X177.121Y263.076
G1 X176.923Y263.441
G1 X176.798Y263.845
G1 X176.754Y264.278
G1 X176.798Y264.711
G1 X176.923Y265.115
G1 X177.121Y265.48
G1 X177.384Y265.798
G1 X177.702Y266.061
G1 X178.067Y266.259
G1 X178.471Y266.384
G1 X178.904Y266.428
G1 X179.337Y266.384
G1 X179.741Y266.259
G1 X180.106Y266.061
G1 X180.424Y265.798
G1 X180.687Y265.48
G1 X180.885Y265.115
G1 X181.01Y264.711
G1 X181.054Y264.278
; Layer C00 Pass 2 of 2
G1 X181.01Y263.845
G1 X180.885Y263.441
G1 X180.687Y263.076
G1 X180.424Y262.758
G1 X180.106Y262.495
G1 X179.741Y262.297
G1 X179.337Y262.172
G1 X178.904Y262.128
G1 X178.471Y262.172
G1 X178.067Y262.297
G1 X177.702Y262.495
G1 X177.384Y262.758
G1 X177.121Y263.076
G1 X176.923Y263.441
G1 X176.798Y263.845
G1 X176.754Y264.278
G1 X176.798Y264.711
G1 X176.923Y265.115
G1 X177.121Y265.48
G1 X177.384Y265.798
G1 X177.702Y266.061
G1 X178.067Y266.259
G1 X178.471Y266.384
G1 X178.904Y266.428
G1 X179.337Y266.384
G1 X179.741Y266.259
G1 X180.106Y266.061
G1 X180.424Y265.798
G1 X180.687Y265.48
G1 X180.885Y265.115
G1 X181.01Y264.711
G1 X181.054Y264.278
G0 X186.64Y256.304
; Layer C00 Pass 1 of 2
G1 X182.23Y257.081
G1 X181.361Y252.157
G1 X191.21Y250.421
G1 X192.078Y255.345
G1 X187.668Y256.122
G1 X188.186Y256.18
G1 X188.671Y256.329
G1 X189.114Y256.561
G1 X189.505Y256.867
G1 X189.835Y257.239
G1 X190.095Y257.666
G1 X190.274Y258.141
G1 X190.364Y258.655
G1 X190.356Y259.176
G1 X190.254Y259.673
G1 X190.065Y260.136
G1 X189.797Y260.555
G1 X189.459Y260.919
G1 X189.058Y261.218
G1 X188.603Y261.442
G1 X188.1Y261.58
G1 X187.581Y261.622
G1 X187.076Y261.567
G1 X186.597Y261.424
G1 X186.155Y261.197
G1 X185.76Y260.895
G1 X185.424Y260.525
G1 X185.158Y260.093
G1 X184.972Y259.605
G1 X184.881Y259.092
G1 X184.887Y258.585
G1 X184.985Y258.094
G1 X185.168Y257.632
G1 X185.431Y257.211
G1 X185.768Y256.841
G1 X186.173Y256.535
G1 X186.64Y256.304
; Layer C00 Pass 2 of 2
G1 X182.23Y257.081
G1 X181.361Y252.157
G1 X191.21Y250.421
G1 X192.078Y255.345
G1 X187.668Y256.122
G1 X188.186Y256.18
G1 X188.671Y256.329
G1 X189.114Y256.561
G1 X189.505Y256.867
G1 X189.835Y257.239
G1 X190.095Y257.666
G1 X190.274Y258.141
G1 X190.364Y258.655
G1 X190.356Y259.176
G1 X190.254Y259.673
G1 X190.065Y260.136
G1 X189.797Y260.555
G1 X189.459Y260.919
G1 X189.058Y261.218
G1 X188.603Y261.442
G1 X188.1Y261.58
G1 X187.581Y261.622
G1 X187.076Y261.567
G1 X186.597Y261.424
G1 X186.155Y261.197
G1 X185.76Y260.895
G1 X185.424Y260.525
G1 X185.158Y260.093
G1 X184.972Y259.605
G1 X184.881Y259.092
G1 X184.887Y258.585
G1 X184.985Y258.094
G1 X185.168Y257.632
G1 X185.431Y257.211
G1 X185.768Y256.841
G1 X186.173Y256.535
G1 X186.64Y256.304
G0 X183.155Y247.931
; Layer C00 Pass 1 of 2
G1 X180.201Y248.452
G1 X179.332Y243.528
G1 X182.287Y243.007
G1 X183.155Y247.931
; Layer C00 Pass 2 of 2
G1 X180.201Y248.452
G1 X179.332Y243.528
G1 X182.287Y243.007
G1 X183.155Y247.931
G0 X183.332Y237.543
; Layer C00 Pass 1 of 2
G1 X178.922Y238.321
G1 X178.053Y233.397
G1 X187.902Y231.66
G1 X188.77Y236.584
G1 X184.36Y237.362
G1 X184.878Y237.419
G1 X185.363Y237.569
G1 X185.806Y237.801
G1 X186.197Y238.107
G1 X186.527Y238.478
G1 X186.787Y238.906
G1 X186.966Y239.381
G1 X187.056Y239.894
G1 X187.048Y240.415
G1 X186.946Y240.913
G1 X186.757Y241.376
G1 X186.489Y241.794
G1 X186.151Y242.158
G1 X185.75Y242.457
G1 X185.295Y242.681
G1 X184.792Y242.82
G1 X184.273Y242.861
G1 X183.768Y242.807
G1 X183.289Y242.663
G1 X182.847Y242.437
G1 X182.452Y242.135
G1 X182.116Y241.764
G1 X181.85Y241.332
G1 X181.664Y240.845
G1 X181.573Y240.332
G1 X181.579Y239.824
G1 X181.677Y239.333
G1 X181.86Y238.872
G1 X182.123Y238.45
G1 X182.46Y238.081
G1 X182.865Y237.774
G1 X183.332Y237.543
; Layer C00 Pass 2 of 2
G1 X178.922Y238.321
G1 X178.053Y233.397
G1 X187.902Y231.66
G1 X188.77Y236.584
G1 X184.36Y237.362
G1 X184.878Y237.419
G1 X185.363Y237.569
G1 X185.806Y237.801
G1 X186.197Y238.107
G1 X186.527Y238.478
G1 X186.787Y238.906
G1 X186.966Y239.381
G1 X187.056Y239.894
G1 X187.048Y240.415
G1 X186.946Y240.913
G1 X186.757Y241.376
G1 X186.489Y241.794
G1 X186.151Y242.158
G1 X185.75Y242.457
G1 X185.295Y242.681
G1 X184.792Y242.82
G1 X184.273Y242.861
G1 X183.768Y242.807
G1 X183.289Y242.663
G1 X182.847Y242.437
G1 X182.452Y242.135
G1 X182.116Y241.764
G1 X181.85Y241.332
G1 X181.664Y240.845
G1 X181.573Y240.332
G1 X181.579Y239.824
G1 X181.677Y239.333
G1 X181.86Y238.872
G1 X182.123Y238.45
G1 X182.46Y238.081
G1 X182.865Y237.774
G1 X183.332Y237.543
G0 X176.423Y238.013
; Layer C00 Pass 1 of 2
G1 X176.379Y237.58
G1 X176.254Y237.176
G1 X176.056Y236.811
G1 X175.793Y236.493
G1 X175.475Y236.23
G1 X175.11Y236.032
G1 X174.706Y235.907
G1 X174.273Y235.863
G1 X173.839Y235.907
G1 X173.436Y236.032
G1 X173.071Y236.23
G1 X172.752Y236.493
G1 X172.49Y236.811
G1 X172.292Y237.176
G1 X172.166Y237.58
G1 X172.123Y238.013
G1 X172.166Y238.446
G1 X172.292Y238.85
G1 X172.49Y239.215
G1 X172.752Y239.533
G1 X173.071Y239.796
G1 X173.436Y239.994
G1 X173.839Y240.119
G1 X174.273Y240.163
G1 X174.706Y240.119
G1 X175.11Y239.994
G1 X175.475Y239.796
G1 X175.793Y239.533
G1 X176.056Y239.215
G1 X176.254Y238.85
G1 X176.379Y238.446
G1 X176.423Y238.013
; Layer C00 Pass 2 of 2
G1 X176.379Y237.58
G1 X176.254Y237.176
G1 X176.056Y236.811
G1 X175.793Y236.493
G1 X175.475Y236.23
G1 X175.11Y236.032
G1 X174.706Y235.907
G1 X174.273Y235.863
G1 X173.839Y235.907
G1 X173.436Y236.032
G1 X173.071Y236.23
G1 X172.752Y236.493
G1 X172.49Y236.811
G1 X172.292Y237.176
G1 X172.166Y237.58
G1 X172.123Y238.013
G1 X172.166Y238.446
G1 X172.292Y238.85
G1 X172.49Y239.215
G1 X172.752Y239.533
G1 X173.071Y239.796
G1 X173.436Y239.994
G1 X173.839Y240.119
G1 X174.273Y240.163
G1 X174.706Y240.119
G1 X175.11Y239.994
G1 X175.475Y239.796
G1 X175.793Y239.533
G1 X176.056Y239.215
G1 X176.254Y238.85
G1 X176.379Y238.446
G1 X176.423Y238.013
G0 X164.62Y240.842
; Layer C00 Pass 1 of 2
G1 X160.21Y241.62
G1 X159.342Y236.696
G1 X169.19Y234.959
G1 X170.058Y239.883
G1 X165.649Y240.661
G1 X166.167Y240.719
G1 X166.652Y240.868
G1 X167.095Y241.1
G1 X167.486Y241.406
G1 X167.816Y241.777
G1 X168.075Y242.205
G1 X168.255Y242.68
G1 X168.345Y243.193
G1 X168.337Y243.715
G1 X168.234Y244.212
G1 X168.046Y244.675
G1 X167.778Y245.094
G1 X167.44Y245.458
G1 X167.039Y245.757
G1 X166.583Y245.98
G1 X166.081Y246.119
G1 X165.561Y246.161
G1 X165.056Y246.106
G1 X164.577Y245.962
G1 X164.135Y245.736
G1 X163.741Y245.434
G1 X163.405Y245.064
G1 X163.139Y244.631
G1 X162.953Y244.144
G1 X162.862Y243.631
G1 X162.868Y243.123
G1 X162.965Y242.633
G1 X163.149Y242.171
G1 X163.411Y241.749
G1 X163.748Y241.38
G1 X164.153Y241.074
G1 X164.62Y240.842
; Layer C00 Pass 2 of 2
G1 X160.21Y241.62
G1 X159.342Y236.696
G1 X169.19Y234.959
G1 X170.058Y239.883
G1 X165.649Y240.661
G1 X166.167Y240.719
G1 X166.652Y240.868
G1 X167.095Y241.1
G1 X167.486Y241.406
G1 X167.816Y241.777
G1 X168.075Y242.205
G1 X168.255Y242.68
G1 X168.345Y243.193
G1 X168.337Y243.715
G1 X168.234Y244.212
G1 X168.046Y244.675
G1 X167.778Y245.094
G1 X167.44Y245.458
G1 X167.039Y245.757
G1 X166.583Y245.98
G1 X166.081Y246.119
G1 X165.561Y246.161
G1 X165.056Y246.106
G1 X164.577Y245.962
G1 X164.135Y245.736
G1 X163.741Y245.434
G1 X163.405Y245.064
G1 X163.139Y244.631
G1 X162.953Y244.144
G1 X162.862Y243.631
G1 X162.868Y243.123
G1 X162.965Y242.633
G1 X163.149Y242.171
G1 X163.411Y241.749
G1 X163.748Y241.38
G1 X164.153Y241.074
G1 X164.62Y240.842
G0 X164.444Y251.231
; Layer C00 Pass 1 of 2
G1 X161.489Y251.752
G1 X160.621Y246.828
G1 X163.575Y246.307
G1 X164.444Y251.231
; Layer C00 Pass 2 of 2
G1 X161.489Y251.752
G1 X160.621Y246.828
G1 X163.575Y246.307
G1 X164.444Y251.231
G0 X167.928Y259.603
; Layer C00 Pass 1 of 2
G1 X163.518Y260.38
G1 X162.65Y255.456
G1 X172.498Y253.72
G1 X173.366Y258.644
G1 X168.957Y259.422
G1 X169.475Y259.479
G1 X169.96Y259.628
G1 X170.403Y259.861
G1 X170.794Y260.167
G1 X171.124Y260.538
G1 X171.383Y260.966
G1 X171.563Y261.441
G1 X171.653Y261.954
G1 X171.645Y262.475
G1 X171.542Y262.973
G1 X171.354Y263.436
G1 X171.086Y263.854
G1 X170.748Y264.218
G1 X170.347Y264.517
G1 X169.891Y264.741
G1 X169.389Y264.879
G1 X168.869Y264.921
G1 X168.364Y264.867
G1 X167.885Y264.723
G1 X167.443Y264.497
G1 X167.049Y264.195
G1 X166.713Y263.824
G1 X166.447Y263.392
G1 X166.261Y262.905
G1 X166.17Y262.392
G1 X166.176Y261.884
G1 X166.273Y261.393
G1 X166.457Y260.932
G1 X166.719Y260.51
G1 X167.056Y260.14
G1 X167.461Y259.834
G1 X167.928Y259.603
; Layer C00 Pass 2 of 2
G1 X163.518Y260.38
G1 X162.65Y255.456
G1 X172.498Y253.72
G1 X173.366Y258.644
G1 X168.957Y259.422
G1 X169.475Y259.479
G1 X169.96Y259.628
G1 X170.403Y259.861
G1 X170.794Y260.167
G1 X171.124Y260.538
G1 X171.383Y260.966
G1 X171.563Y261.441
G1 X171.653Y261.954
G1 X171.645Y262.475
G1 X171.542Y262.973
G1 X171.354Y263.436
G1 X171.086Y263.854
G1 X170.748Y264.218
G1 X170.347Y264.517
G1 X169.891Y264.741
G1 X169.389Y264.879
G1 X168.869Y264.921
G1 X168.364Y264.867
G1 X167.885Y264.723
G1 X167.443Y264.497
G1 X167.049Y264.195
G1 X166.713Y263.824
G1 X166.447Y263.392
G1 X166.261Y262.905
G1 X166.17Y262.392
G1 X166.176Y261.884
G1 X166.273Y261.393
G1 X166.457Y260.932
G1 X166.719Y260.51
G1 X167.056Y260.14
G1 X167.461Y259.834
G1 X167.928Y259.603
G0 X164.797Y270.512
; Layer C00 Pass 1 of 2
G1 X167.752Y269.991
G1 X166.883Y265.067
G1 X163.929Y265.588
G1 X164.797Y270.512
; Layer C00 Pass 2 of 2
G1 X167.752Y269.991
G1 X166.883Y265.067
G1 X163.929Y265.588
G1 X164.797Y270.512
G0 X240.293Y232.335
; Layer C00 Pass 1 of 2
G1 X235.883Y233.113
G1 X235.015Y228.189
G1 X244.863Y226.452
G1 X245.731Y231.376
G1 X241.321Y232.154
G1 X241.839Y232.211
G1 X242.324Y232.361
G1 X242.767Y232.593
G1 X243.158Y232.899
G1 X243.488Y233.27
G1 X243.748Y233.698
G1 X243.927Y234.173
G1 X244.017Y234.686
G1 X244.009Y235.208
G1 X243.907Y235.705
G1 X243.718Y236.168
G1 X243.45Y236.587
G1 X243.112Y236.95
G1 X242.711Y237.249
G1 X242.256Y237.473
G1 X241.753Y237.612
G1 X241.234Y237.654
G1 X240.729Y237.599
G1 X240.25Y237.455
G1 X239.808Y237.229
G1 X239.413Y236.927
G1 X239.077Y236.556
G1 X238.811Y236.124
G1 X238.625Y235.637
G1 X238.534Y235.124
G1 X238.54Y234.616
G1 X238.638Y234.126
G1 X238.821Y233.664
G1 X239.084Y233.242
G1 X239.421Y232.873
G1 X239.826Y232.566
G1 X240.293Y232.335
; Layer C00 Pass 2 of 2
G1 X235.883Y233.113
G1 X235.015Y228.189
G1 X244.863Y226.452
G1 X245.731Y231.376
G1 X241.321Y232.154
G1 X241.839Y232.211
G1 X242.324Y232.361
G1 X242.767Y232.593
G1 X243.158Y232.899
G1 X243.488Y233.27
G1 X243.748Y233.698
G1 X243.927Y234.173
G1 X244.017Y234.686
G1 X244.009Y235.208
G1 X243.907Y235.705
G1 X243.718Y236.168
G1 X243.45Y236.587
G1 X243.112Y236.95
G1 X242.711Y237.249
G1 X242.256Y237.473
G1 X241.753Y237.612
G1 X241.234Y237.654
G1 X240.729Y237.599
G1 X240.25Y237.455
G1 X239.808Y237.229
G1 X239.413Y236.927
G1 X239.077Y236.556
G1 X238.811Y236.124
G1 X238.625Y235.637
G1 X238.534Y235.124
G1 X238.54Y234.616
G1 X238.638Y234.126
G1 X238.821Y233.664
G1 X239.084Y233.242
G1 X239.421Y232.873
G1 X239.826Y232.566
G1 X240.293Y232.335
G0 X258Y234.734
; Layer C00 Pass 1 of 2
G1 X255.046Y235.255
G1 X254.178Y230.331
G1 X257.132Y229.81
G1 X258Y234.734
; Layer C00 Pass 2 of 2
G1 X255.046Y235.255
G1 X254.178Y230.331
G1 X257.132Y229.81
G1 X258Y234.734
G0 X262.513Y242.925
; Layer C00 Pass 1 of 2
G1 X266.923Y242.147
G1 X266.055Y237.223
G1 X256.207Y238.96
G1 X257.075Y243.884
G1 X261.485Y243.106
G1 X261.018Y243.338
G1 X260.613Y243.644
G1 X260.276Y244.013
G1 X260.013Y244.435
G1 X259.83Y244.897
G1 X259.733Y245.387
G1 X259.727Y245.895
G1 X259.818Y246.408
G1 X260.003Y246.895
G1 X260.27Y247.328
G1 X260.605Y247.698
G1 X261Y248
G1 X261.442Y248.226
G1 X261.921Y248.37
G1 X262.426Y248.425
G1 X262.946Y248.383
G1 X263.448Y248.244
G1 X263.904Y248.021
G1 X264.305Y247.722
G1 X264.643Y247.358
G1 X264.91Y246.939
G1 X265.099Y246.476
G1 X265.202Y245.979
G1 X265.209Y245.457
G1 X265.12Y244.944
G1 X264.94Y244.469
G1 X264.681Y244.041
G1 X264.351Y243.67
G1 X263.96Y243.364
G1 X263.517Y243.132
G1 X263.031Y242.983
G1 X262.513Y242.925
; Layer C00 Pass 2 of 2
G1 X266.923Y242.147
G1 X266.055Y237.223
G1 X256.207Y238.96
G1 X257.075Y243.884
G1 X261.485Y243.106
G1 X261.018Y243.338
G1 X260.613Y243.644
G1 X260.276Y244.013
G1 X260.013Y244.435
G1 X259.83Y244.897
G1 X259.733Y245.387
G1 X259.727Y245.895
G1 X259.818Y246.408
G1 X260.003Y246.895
G1 X260.27Y247.328
G1 X260.605Y247.698
G1 X261Y248
G1 X261.442Y248.226
G1 X261.921Y248.37
G1 X262.426Y248.425
G1 X262.946Y248.383
G1 X263.448Y248.244
G1 X263.904Y248.021
G1 X264.305Y247.722
G1 X264.643Y247.358
G1 X264.91Y246.939
G1 X265.099Y246.476
G1 X265.202Y245.979
G1 X265.209Y245.457
G1 X265.12Y244.944
G1 X264.94Y244.469
G1 X264.681Y244.041
G1 X264.351Y243.67
G1 X263.96Y243.364
G1 X263.517Y243.132
G1 X263.031Y242.983
G1 X262.513Y242.925
G0 X258.177Y224.346
; Layer C00 Pass 1 of 2
G1 X253.767Y225.123
G1 X252.899Y220.199
G1 X262.747Y218.463
G1 X263.615Y223.387
G1 X259.205Y224.164
G1 X259.723Y224.222
G1 X260.209Y224.371
G1 X260.652Y224.603
G1 X261.043Y224.91
G1 X261.373Y225.281
G1 X261.632Y225.708
G1 X261.812Y226.183
G1 X261.901Y226.697
G1 X261.894Y227.218
G1 X261.791Y227.715
G1 X261.602Y228.178
G1 X261.335Y228.597
G1 X260.997Y228.961
G1 X260.596Y229.26
G1 X260.14Y229.484
G1 X259.638Y229.622
G1 X259.118Y229.664
G1 X258.613Y229.61
G1 X258.134Y229.466
G1 X257.692Y229.239
G1 X257.297Y228.938
G1 X256.962Y228.567
G1 X256.695Y228.135
G1 X256.51Y227.648
G1 X256.418Y227.134
G1 X256.425Y226.627
G1 X256.522Y226.136
G1 X256.705Y225.674
G1 X256.968Y225.253
G1 X257.305Y224.883
G1 X257.71Y224.577
G1 X258.177Y224.346
; Layer C00 Pass 2 of 2
G1 X253.767Y225.123
G1 X252.899Y220.199
G1 X262.747Y218.463
G1 X263.615Y223.387
G1 X259.205Y224.164
G1 X259.723Y224.222
G1 X260.209Y224.371
G1 X260.652Y224.603
G1 X261.043Y224.91
G1 X261.373Y225.281
G1 X261.632Y225.708
G1 X261.812Y226.183
G1 X261.901Y226.697
G1 X261.894Y227.218
G1 X261.791Y227.715
G1 X261.602Y228.178
G1 X261.335Y228.597
G1 X260.997Y228.961
G1 X260.596Y229.26
G1 X260.14Y229.484
G1 X259.638Y229.622
G1 X259.118Y229.664
G1 X258.613Y229.61
G1 X258.134Y229.466
G1 X257.692Y229.239
G1 X257.297Y228.938
G1 X256.962Y228.567
G1 X256.695Y228.135
G1 X256.51Y227.648
G1 X256.418Y227.134
G1 X256.425Y226.627
G1 X256.522Y226.136
G1 X256.705Y225.674
G1 X256.968Y225.253
G1 X257.305Y224.883
G1 X257.71Y224.577
G1 X258.177Y224.346
G0 X248.75Y213.526
; Layer C00 Pass 1 of 2
G1 X247.456Y208.697
G1 X244.558Y209.473
G1 X245.852Y214.303
G1 X248.75Y213.526
; Layer C00 Pass 2 of 2
G1 X247.456Y208.697
G1 X244.558Y209.473
G1 X245.852Y214.303
G1 X248.75Y213.526
G0 X248.02Y203.162
; Layer C00 Pass 1 of 2
G1 X243.695Y204.321
G1 X242.401Y199.491
G1 X252.06Y196.903
G1 X253.354Y201.733
G1 X249.029Y202.892
G1 X249.55Y202.904
G1 X250.046Y203.01
G1 X250.508Y203.203
G1 X250.924Y203.474
G1 X251.285Y203.815
G1 X251.581Y204.218
G1 X251.801Y204.676
G1 X251.935Y205.179
G1 X251.973Y205.699
G1 X251.914Y206.204
G1 X251.767Y206.681
G1 X251.537Y207.122
G1 X251.231Y207.514
G1 X250.858Y207.847
G1 X250.424Y208.109
G1 X249.935Y208.291
G1 X249.421Y208.378
G1 X248.913Y208.368
G1 X248.424Y208.266
G1 X247.964Y208.079
G1 X247.544Y207.813
G1 X247.177Y207.473
G1 X246.874Y207.066
G1 X246.647Y206.596
G1 X246.511Y206.093
G1 X246.473Y205.587
G1 X246.528Y205.09
G1 X246.67Y204.614
G1 X246.895Y204.171
G1 X247.198Y203.773
G1 X247.575Y203.433
G1 X248.02Y203.162
; Layer C00 Pass 2 of 2
G1 X243.695Y204.321
G1 X242.401Y199.491
G1 X252.06Y196.903
G1 X253.354Y201.733
G1 X249.029Y202.892
G1 X249.55Y202.904
G1 X250.046Y203.01
G1 X250.508Y203.203
G1 X250.924Y203.474
G1 X251.285Y203.815
G1 X251.581Y204.218
G1 X251.801Y204.676
G1 X251.935Y205.179
G1 X251.973Y205.699
G1 X251.914Y206.204
G1 X251.767Y206.681
G1 X251.537Y207.122
G1 X251.231Y207.514
G1 X250.858Y207.847
G1 X250.424Y208.109
G1 X249.935Y208.291
G1 X249.421Y208.378
G1 X248.913Y208.368
G1 X248.424Y208.266
G1 X247.964Y208.079
G1 X247.544Y207.813
G1 X247.177Y207.473
G1 X246.874Y207.066
G1 X246.647Y206.596
G1 X246.511Y206.093
G1 X246.473Y205.587
G1 X246.528Y205.09
G1 X246.67Y204.614
G1 X246.895Y204.171
G1 X247.198Y203.773
G1 X247.575Y203.433
G1 X248.02Y203.162
G0 X265.23Y210.748
; Layer C00 Pass 1 of 2
G1 X265.186Y210.314
G1 X265.061Y209.911
G1 X264.863Y209.546
G1 X264.6Y209.227
G1 X264.282Y208.965
G1 X263.917Y208.767
G1 X263.513Y208.641
G1 X263.08Y208.598
G1 X262.647Y208.641
G1 X262.243Y208.767
G1 X261.878Y208.965
G1 X261.56Y209.227
G1 X261.297Y209.546
G1 X261.099Y209.911
G1 X260.974Y210.314
G1 X260.93Y210.748
G1 X260.974Y211.181
G1 X261.099Y211.585
G1 X261.297Y211.95
G1 X261.56Y212.268
G1 X261.878Y212.531
G1 X262.243Y212.729
G1 X262.647Y212.854
G1 X263.08Y212.898
G1 X263.513Y212.854
G1 X263.917Y212.729
G1 X264.282Y212.531
G1 X264.6Y212.268
G1 X264.863Y211.95
G1 X265.061Y211.585
G1 X265.186Y211.181
G1 X265.23Y210.748
; Layer C00 Pass 2 of 2
G1 X265.186Y210.314
G1 X265.061Y209.911
G1 X264.863Y209.546
G1 X264.6Y209.227
G1 X264.282Y208.965
G1 X263.917Y208.767
G1 X263.513Y208.641
G1 X263.08Y208.598
G1 X262.647Y208.641
G1 X262.243Y208.767
G1 X261.878Y208.965
G1 X261.56Y209.227
G1 X261.297Y209.546
G1 X261.099Y209.911
G1 X260.974Y210.314
G1 X260.93Y210.748
G1 X260.974Y211.181
G1 X261.099Y211.585
G1 X261.297Y211.95
G1 X261.56Y212.268
G1 X261.878Y212.531
G1 X262.243Y212.729
G1 X262.647Y212.854
G1 X263.08Y212.898
G1 X263.513Y212.854
G1 X263.917Y212.729
G1 X264.282Y212.531
G1 X264.6Y212.268
G1 X264.863Y211.95
G1 X265.061Y211.585
G1 X265.186Y211.181
G1 X265.23Y210.748
G0 X268.691Y202.227
; Layer C00 Pass 1 of 2
G1 X265.995Y203.542
G1 X263.803Y199.048
G1 X266.499Y197.733
G1 X268.691Y202.227
; Layer C00 Pass 2 of 2
G1 X265.995Y203.542
G1 X263.803Y199.048
G1 X266.499Y197.733
G1 X268.691Y202.227
G0 X265.998Y192.192
; Layer C00 Pass 1 of 2
G1 X261.973Y194.155
G1 X259.781Y189.661
G1 X268.769Y185.277
G1 X270.961Y189.771
G1 X266.936Y191.734
G1 X267.45Y191.647
G1 X267.958Y191.657
G1 X268.447Y191.758
G1 X268.908Y191.944
G1 X269.327Y192.21
G1 X269.695Y192.55
G1 X269.998Y192.957
G1 X270.226Y193.426
G1 X270.362Y193.929
G1 X270.401Y194.435
G1 X270.347Y194.932
G1 X270.205Y195.408
G1 X269.98Y195.851
G1 X269.677Y196.249
G1 X269.301Y196.59
G1 X268.856Y196.862
G1 X268.368Y197.045
G1 X267.868Y197.132
G1 X267.368Y197.126
G1 X266.88Y197.03
G1 X266.418Y196.849
G1 X265.993Y196.585
G1 X265.618Y196.243
G1 X265.305Y195.826
G1 X265.076Y195.357
G1 X264.942Y194.868
G1 X264.9Y194.369
G1 X264.949Y193.875
G1 X265.086Y193.397
G1 X265.307Y192.949
G1 X265.612Y192.543
G1 X265.998Y192.192
; Layer C00 Pass 2 of 2
G1 X261.973Y194.155
G1 X259.781Y189.661
G1 X268.769Y185.277
G1 X270.961Y189.771
G1 X266.936Y191.734
G1 X267.45Y191.647
G1 X267.958Y191.657
G1 X268.447Y191.758
G1 X268.908Y191.944
G1 X269.327Y192.21
G1 X269.695Y192.55
G1 X269.998Y192.957
G1 X270.226Y193.426
G1 X270.362Y193.929
G1 X270.401Y194.435
G1 X270.347Y194.932
G1 X270.205Y195.408
G1 X269.98Y195.851
G1 X269.677Y196.249
G1 X269.301Y196.59
G1 X268.856Y196.862
G1 X268.368Y197.045
G1 X267.868Y197.132
G1 X267.368Y197.126
G1 X266.88Y197.03
G1 X266.418Y196.849
G1 X265.993Y196.585
G1 X265.618Y196.243
G1 X265.305Y195.826
G1 X265.076Y195.357
G1 X264.942Y194.868
G1 X264.9Y194.369
G1 X264.949Y193.875
G1 X265.086Y193.397
G1 X265.307Y192.949
G1 X265.612Y192.543
G1 X265.998Y192.192
G0 X280.301Y200.036
; Layer C00 Pass 1 of 2
G1 X280.475Y199.798
G1 X280.611Y199.541
G1 X280.707Y199.27
G1 X280.763Y198.989
G1 X280.779Y198.704
G1 X280.753Y198.417
G1 X280.686Y198.135
G1 X280.577Y197.861
G1 X273.176Y182.687
G1 X272.963Y182.342
G1 X272.693Y182.056
G1 X272.379Y181.832
G1 X272.029Y181.673
G1 X271.656Y181.583
G1 X271.27Y181.566
G1 X270.882Y181.626
G1 X270.501Y181.766
G1 X255.723Y188.974
G1 X255.419Y189.158
G1 X255.153Y189.391
G1 X254.933Y189.666
G1 X254.764Y189.979
G1 X253.333Y193.295
G1 X253.231Y193.498
G1 X253.108Y193.687
G1 X252.965Y193.86
G1 X252.804Y194.016
G1 X252.627Y194.152
G1 X252.435Y194.268
G1 X252.23Y194.363
G1 X252.014Y194.434
G1 X238.631Y198.02
G1 X238.273Y198.154
G1 X237.956Y198.346
G1 X237.683Y198.591
G1 X237.461Y198.879
G1 X237.294Y199.202
G1 X237.189Y199.553
G1 X237.149Y199.922
G1 X237.18Y200.303
G1 X241.16Y222.637
G1 X241.19Y223.03
G1 X241.144Y223.418
G1 X241.023Y223.79
G1 X240.83Y224.134
G1 X240.573Y224.433
G1 X240.266Y224.674
G1 X239.918Y224.851
G1 X239.538Y224.958
G1 X230.806Y226.497
G1 X230.531Y226.566
G1 X230.273Y226.671
G1 X230.034Y226.809
G1 X229.817Y226.979
G1 X229.626Y227.176
G1 X229.462Y227.399
G1 X229.33Y227.644
G1 X229.232Y227.91
G1 X228.448Y230.614
G1 X228.35Y230.88
G1 X228.218Y231.125
G1 X228.055Y231.348
G1 X227.863Y231.545
G1 X227.646Y231.714
G1 X227.407Y231.853
G1 X227.149Y231.958
G1 X226.875Y232.027
G1 X216.402Y233.873
G1 X216.12Y233.903
G1 X215.842Y233.892
G1 X215.57Y233.844
G1 X215.308Y233.759
G1 X215.06Y233.639
G1 X214.831Y233.486
G1 X214.623Y233.3
G1 X214.44Y233.084
G1 X212.778Y230.811
G1 X212.595Y230.595
G1 X212.387Y230.41
G1 X212.158Y230.256
G1 X211.91Y230.136
G1 X211.648Y230.051
G1 X211.376Y230.003
G1 X211.098Y229.993
G1 X210.816Y230.022
G1 X196.863Y232.482
G1 X196.582Y232.512
G1 X196.303Y232.501
G1 X196.031Y232.453
G1 X195.77Y232.368
G1 X195.522Y232.248
G1 X195.292Y232.095
G1 X195.084Y231.909
G1 X194.902Y231.693
G1 X193.24Y229.42
G1 X193.057Y229.204
G1 X192.849Y229.019
G1 X192.619Y228.865
G1 X192.372Y228.745
G1 X192.11Y228.66
G1 X191.838Y228.612
G1 X191.559Y228.602
G1 X191.278Y228.631
G1 X155.877Y234.873
G1 X155.487Y234.983
G1 X155.137Y235.163
G1 X154.835Y235.404
G1 X154.586Y235.696
G1 X154.396Y236.03
G1 X154.274Y236.396
G1 X154.224Y236.786
G1 X154.254Y237.19
G1 X156.016Y247.183
G1 X160.297Y246.428
G1 X164.464Y270.063
G1 X160.184Y270.818
G1 X160.976Y275.311
G1 X194.062Y269.477
G1 X194.67Y272.924
G1 X161.584Y278.758
G1 X163.581Y290.083
G1 X196.667Y284.249
G1 X197.275Y287.696
G1 X164.188Y293.53
G1 X164.232Y293.777
G1 X164.342Y294.167
G1 X164.521Y294.516
G1 X164.761Y294.818
G1 X165.053Y295.067
G1 X165.386Y295.256
G1 X165.752Y295.379
G1 X166.141Y295.429
G1 X166.544Y295.4
G1 X202.016Y289.228
G1 X203.273Y290.544
G1 X217.459Y288.043
G1 X217.74Y288.014
G1 X218.019Y288.024
G1 X218.291Y288.072
G1 X218.552Y288.157
G1 X218.8Y288.277
G1 X219.03Y288.431
G1 X219.238Y288.616
G1 X219.42Y288.832
G1 X221.082Y291.105
G1 X221.265Y291.321
G1 X221.473Y291.507
G1 X221.703Y291.66
G1 X221.95Y291.78
G1 X222.212Y291.865
G1 X222.484Y291.913
G1 X222.763Y291.924
G1 X223.044Y291.894
G1 X240.477Y288.82
G1 X240.752Y288.752
G1 X241.01Y288.647
G1 X241.249Y288.508
G1 X241.466Y288.339
G1 X241.657Y288.142
G1 X241.821Y287.919
G1 X241.953Y287.673
G1 X242.051Y287.408
G1 X242.835Y284.704
G1 X242.933Y284.438
G1 X243.065Y284.193
G1 X243.228Y283.97
G1 X243.42Y283.772
G1 X243.637Y283.603
G1 X243.876Y283.465
G1 X244.134Y283.36
G1 X244.408Y283.291
G1 X258.361Y280.831
G1 X258.636Y280.762
G1 X258.894Y280.657
G1 X259.133Y280.519
G1 X259.35Y280.35
G1 X259.542Y280.152
G1 X259.705Y279.929
G1 X259.837Y279.684
G1 X259.935Y279.418
G1 X260.719Y276.714
G1 X260.817Y276.449
G1 X260.949Y276.203
G1 X261.113Y275.98
G1 X261.304Y275.783
G1 X261.521Y275.614
G1 X261.76Y275.475
G1 X262.018Y275.37
G1 X262.293Y275.302
G1 X275.503Y272.972
G1 X275.893Y272.862
G1 X276.242Y272.682
G1 X276.545Y272.442
G1 X276.794Y272.15
G1 X276.983Y271.816
G1 X277.105Y271.449
G1 X277.155Y271.059
G1 X277.125Y270.655
G1 X267.514Y216.146
G1 X267.485Y215.705
G1 X267.553Y215.273
G1 X267.714Y214.867
G1 X267.962Y214.501
G1 X280.301Y200.036
; Layer C00 Pass 2 of 2
G1 X280.475Y199.798
G1 X280.611Y199.541
G1 X280.707Y199.27
G1 X280.763Y198.989
G1 X280.779Y198.704
G1 X280.753Y198.417
G1 X280.686Y198.135
G1 X280.577Y197.861
G1 X273.176Y182.687
G1 X272.963Y182.342
G1 X272.693Y182.056
G1 X272.379Y181.832
G1 X272.029Y181.673
G1 X271.656Y181.583
G1 X271.27Y181.566
G1 X270.882Y181.626
G1 X270.501Y181.766
G1 X255.723Y188.974
G1 X255.419Y189.158
G1 X255.153Y189.391
G1 X254.933Y189.666
G1 X254.764Y189.979
G1 X253.333Y193.295
G1 X253.231Y193.498
G1 X253.108Y193.687
G1 X252.965Y193.86
G1 X252.804Y194.016
G1 X252.627Y194.152
G1 X252.435Y194.268
G1 X252.23Y194.363
G1 X252.014Y194.434
G1 X238.631Y198.02
G1 X238.273Y198.154
G1 X237.956Y198.346
G1 X237.683Y198.591
G1 X237.461Y198.879
G1 X237.294Y199.202
G1 X237.189Y199.553
G1 X237.149Y199.922
G1 X237.18Y200.303
G1 X241.16Y222.637
G1 X241.19Y223.03
G1 X241.144Y223.418
G1 X241.023Y223.79
G1 X240.83Y224.134
G1 X240.573Y224.433
G1 X240.266Y224.674
G1 X239.918Y224.851
G1 X239.538Y224.958
G1 X230.806Y226.497
G1 X230.531Y226.566
G1 X230.273Y226.671
G1 X230.034Y226.809
G1 X229.817Y226.979
G1 X229.626Y227.176
G1 X229.462Y227.399
G1 X229.33Y227.644
G1 X229.232Y227.91
G1 X228.448Y230.614
G1 X228.35Y230.88
G1 X228.218Y231.125
G1 X228.055Y231.348
G1 X227.863Y231.545
G1 X227.646Y231.714
G1 X227.407Y231.853
G1 X227.149Y231.958
G1 X226.875Y232.027
G1 X216.402Y233.873
G1 X216.12Y233.903
G1 X215.842Y233.892
G1 X215.57Y233.844
G1 X215.308Y233.759
G1 X215.06Y233.639
G1 X214.831Y233.486
G1 X214.623Y233.3
G1 X214.44Y233.084
G1 X212.778Y230.811
G1 X212.595Y230.595
G1 X212.387Y230.41
G1 X212.158Y230.256
G1 X211.91Y230.136
G1 X211.648Y230.051
G1 X211.376Y230.003
G1 X211.098Y229.993
G1 X210.816Y230.022
G1 X196.863Y232.482
G1 X196.582Y232.512
G1 X196.303Y232.501
G1 X196.031Y232.453
G1 X195.77Y232.368
G1 X195.522Y232.248
G1 X195.292Y232.095
G1 X195.084Y231.909
G1 X194.902Y231.693
G1 X193.24Y229.42
G1 X193.057Y229.204
G1 X192.849Y229.019
G1 X192.619Y228.865
G1 X192.372Y228.745
G1 X192.11Y228.66
G1 X191.838Y228.612
G1 X191.559Y228.602
G1 X191.278Y228.631
G1 X155.877Y234.873
G1 X155.487Y234.983
G1 X155.137Y235.163
G1 X154.835Y235.404
G1 X154.586Y235.696
G1 X154.396Y236.03
G1 X154.274Y236.396
G1 X154.224Y236.786
G1 X154.254Y237.19
G1 X156.016Y247.183
G1 X160.297Y246.428
G1 X164.464Y270.063
G1 X160.184Y270.818
G1 X160.976Y275.311
G1 X194.062Y269.477
G1 X194.67Y272.924
G1 X161.584Y278.758
G1 X163.581Y290.083
G1 X196.667Y284.249
G1 X197.275Y287.696
G1 X164.188Y293.53
G1 X164.232Y293.777
G1 X164.342Y294.167
G1 X164.521Y294.516
G1 X164.761Y294.818
G1 X165.053Y295.067
G1 X165.386Y295.256
G1 X165.752Y295.379
G1 X166.141Y295.429
G1 X166.544Y295.4
G1 X202.016Y289.228
G1 X203.273Y290.544
G1 X217.459Y288.043
G1 X217.74Y288.014
G1 X218.019Y288.024
G1 X218.291Y288.072
G1 X218.552Y288.157
G1 X218.8Y288.277
G1 X219.03Y288.431
G1 X219.238Y288.616
G1 X219.42Y288.832
G1 X221.082Y291.105
G1 X221.265Y291.321
G1 X221.473Y291.507
G1 X221.703Y291.66
G1 X221.95Y291.78
G1 X222.212Y291.865
G1 X222.484Y291.913
G1 X222.763Y291.924
G1 X223.044Y291.894
G1 X240.477Y288.82
G1 X240.752Y288.752
G1 X241.01Y288.647
G1 X241.249Y288.508
G1 X241.466Y288.339
G1 X241.657Y288.142
G1 X241.821Y287.919
G1 X241.953Y287.673
G1 X242.051Y287.408
G1 X242.835Y284.704
G1 X242.933Y284.438
G1 X243.065Y284.193
G1 X243.228Y283.97
G1 X243.42Y283.772
G1 X243.637Y283.603
G1 X243.876Y283.465
G1 X244.134Y283.36
G1 X244.408Y283.291
G1 X258.361Y280.831
G1 X258.636Y280.762
G1 X258.894Y280.657
G1 X259.133Y280.519
G1 X259.35Y280.35
G1 X259.542Y280.152
G1 X259.705Y279.929
G1 X259.837Y279.684
G1 X259.935Y279.418
G1 X260.719Y276.714
G1 X260.817Y276.449
G1 X260.949Y276.203
G1 X261.113Y275.98
G1 X261.304Y275.783
G1 X261.521Y275.614
G1 X261.76Y275.475
G1 X262.018Y275.37
G1 X262.293Y275.302
G1 X275.503Y272.972
G1 X275.893Y272.862
G1 X276.242Y272.682
G1 X276.545Y272.442
G1 X276.794Y272.15
G1 X276.983Y271.816
G1 X277.105Y271.449
G1 X277.155Y271.059
G1 X277.125Y270.655
G1 X267.514Y216.146
G1 X267.485Y215.705
G1 X267.553Y215.273
G1 X267.714Y214.867
G1 X267.962Y214.501
G1 X280.301Y200.036
G0 X215.499Y168.736
; Layer C00 Pass 1 of 2
G1 X212.544Y169.257
G1 X211.676Y164.333
G1 X214.631Y163.812
G1 X215.499Y168.736
; Layer C00 Pass 2 of 2
G1 X212.544Y169.257
G1 X211.676Y164.333
G1 X214.631Y163.812
G1 X215.499Y168.736
G0 X197.791Y166.337
; Layer C00 Pass 1 of 2
G1 X193.381Y167.115
G1 X192.513Y162.191
G1 X202.361Y160.454
G1 X203.229Y165.379
G1 X198.819Y166.156
G1 X199.337Y166.214
G1 X199.823Y166.363
G1 X200.266Y166.595
G1 X200.657Y166.901
G1 X200.987Y167.273
G1 X201.246Y167.7
G1 X201.426Y168.175
G1 X201.516Y168.689
G1 X201.508Y169.21
G1 X201.405Y169.707
G1 X201.216Y170.17
G1 X200.949Y170.589
G1 X200.611Y170.953
G1 X200.21Y171.252
G1 X199.754Y171.476
G1 X199.252Y171.614
G1 X198.732Y171.656
G1 X198.227Y171.601
G1 X197.748Y171.457
G1 X197.306Y171.231
G1 X196.912Y170.929
G1 X196.576Y170.559
G1 X196.309Y170.126
G1 X196.124Y169.639
G1 X196.033Y169.126
G1 X196.039Y168.618
G1 X196.136Y168.128
G1 X196.319Y167.666
G1 X196.582Y167.245
G1 X196.919Y166.875
G1 X197.324Y166.569
G1 X197.791Y166.337
; Layer C00 Pass 2 of 2
G1 X193.381Y167.115
G1 X192.513Y162.191
G1 X202.361Y160.454
G1 X203.229Y165.379
G1 X198.819Y166.156
G1 X199.337Y166.214
G1 X199.823Y166.363
G1 X200.266Y166.595
G1 X200.657Y166.901
G1 X200.987Y167.273
G1 X201.246Y167.7
G1 X201.426Y168.175
G1 X201.516Y168.689
G1 X201.508Y169.21
G1 X201.405Y169.707
G1 X201.216Y170.17
G1 X200.949Y170.589
G1 X200.611Y170.953
G1 X200.21Y171.252
G1 X199.754Y171.476
G1 X199.252Y171.614
G1 X198.732Y171.656
G1 X198.227Y171.601
G1 X197.748Y171.457
G1 X197.306Y171.231
G1 X196.912Y170.929
G1 X196.576Y170.559
G1 X196.309Y170.126
G1 X196.124Y169.639
G1 X196.033Y169.126
G1 X196.039Y168.618
G1 X196.136Y168.128
G1 X196.319Y167.666
G1 X196.582Y167.245
G1 X196.919Y166.875
G1 X197.324Y166.569
G1 X197.791Y166.337
G0 X206.248Y147.528
; Layer C00 Pass 1 of 2
G1 X204.954Y142.699
G1 X202.056Y143.475
G1 X203.35Y148.305
G1 X206.248Y147.528
; Layer C00 Pass 2 of 2
G1 X204.954Y142.699
G1 X202.056Y143.475
G1 X203.35Y148.305
G1 X206.248Y147.528
G0 X205.519Y137.164
; Layer C00 Pass 1 of 2
G1 X201.193Y138.323
G1 X199.899Y133.493
G1 X209.559Y130.905
G1 X210.853Y135.735
G1 X206.527Y136.894
G1 X207.048Y136.906
G1 X207.545Y137.012
G1 X208.006Y137.205
G1 X208.423Y137.476
G1 X208.784Y137.817
G1 X209.079Y138.22
G1 X209.3Y138.678
G1 X209.434Y139.182
G1 X209.471Y139.702
G1 X209.413Y140.206
G1 X209.265Y140.684
G1 X209.035Y141.124
G1 X208.73Y141.516
G1 X208.357Y141.849
G1 X207.922Y142.112
G1 X207.434Y142.293
G1 X206.92Y142.38
G1 X206.412Y142.37
G1 X205.922Y142.268
G1 X205.462Y142.081
G1 X205.043Y141.815
G1 X204.676Y141.475
G1 X204.373Y141.068
G1 X204.145Y140.599
G1 X204.01Y140.095
G1 X203.972Y139.589
G1 X204.026Y139.092
G1 X204.168Y138.616
G1 X204.393Y138.173
G1 X204.697Y137.776
G1 X205.074Y137.435
G1 X205.519Y137.164
; Layer C00 Pass 2 of 2
G1 X201.193Y138.323
G1 X199.899Y133.493
G1 X209.559Y130.905
G1 X210.853Y135.735
G1 X206.527Y136.894
G1 X207.048Y136.906
G1 X207.545Y137.012
G1 X208.006Y137.205
G1 X208.423Y137.476
G1 X208.784Y137.817
G1 X209.079Y138.22
G1 X209.3Y138.678
G1 X209.434Y139.182
G1 X209.471Y139.702
G1 X209.413Y140.206
G1 X209.265Y140.684
G1 X209.035Y141.124
G1 X208.73Y141.516
G1 X208.357Y141.849
G1 X207.922Y142.112
G1 X207.434Y142.293
G1 X206.92Y142.38
G1 X206.412Y142.37
G1 X205.922Y142.268
G1 X205.462Y142.081
G1 X205.043Y141.815
G1 X204.676Y141.475
G1 X204.373Y141.068
G1 X204.145Y140.599
G1 X204.01Y140.095
G1 X203.972Y139.589
G1 X204.026Y139.092
G1 X204.168Y138.616
G1 X204.393Y138.173
G1 X204.697Y137.776
G1 X205.074Y137.435
G1 X205.519Y137.164
G0 X222.728Y144.75
; Layer C00 Pass 1 of 2
G1 X222.685Y144.317
G1 X222.559Y143.913
G1 X222.361Y143.548
G1 X222.099Y143.23
G1 X221.78Y142.967
G1 X221.415Y142.769
G1 X221.012Y142.644
G1 X220.578Y142.6
G1 X220.145Y142.644
G1 X219.741Y142.769
G1 X219.376Y142.967
G1 X219.058Y143.23
G1 X218.795Y143.548
G1 X218.597Y143.913
G1 X218.472Y144.317
G1 X218.428Y144.75
G1 X218.472Y145.183
G1 X218.597Y145.587
G1 X218.795Y145.952
G1 X219.058Y146.27
G1 X219.376Y146.533
G1 X219.741Y146.731
G1 X220.145Y146.856
G1 X220.578Y146.9
G1 X221.012Y146.856
G1 X221.415Y146.731
G1 X221.78Y146.533
G1 X222.099Y146.27
G1 X222.361Y145.952
G1 X222.559Y145.587
G1 X222.685Y145.183
G1 X222.728Y144.75
; Layer C00 Pass 2 of 2
G1 X222.685Y144.317
G1 X222.559Y143.913
G1 X222.361Y143.548
G1 X222.099Y143.23
G1 X221.78Y142.967
G1 X221.415Y142.769
G1 X221.012Y142.644
G1 X220.578Y142.6
G1 X220.145Y142.644
G1 X219.741Y142.769
G1 X219.376Y142.967
G1 X219.058Y143.23
G1 X218.795Y143.548
G1 X218.597Y143.913
G1 X218.472Y144.317
G1 X218.428Y144.75
G1 X218.472Y145.183
G1 X218.597Y145.587
G1 X218.795Y145.952
G1 X219.058Y146.27
G1 X219.376Y146.533
G1 X219.741Y146.731
G1 X220.145Y146.856
G1 X220.578Y146.9
G1 X221.012Y146.856
G1 X221.415Y146.731
G1 X221.78Y146.533
G1 X222.099Y146.27
G1 X222.361Y145.952
G1 X222.559Y145.587
G1 X222.685Y145.183
G1 X222.728Y144.75
G0 X226.19Y136.229
; Layer C00 Pass 1 of 2
G1 X223.493Y137.544
G1 X221.301Y133.05
G1 X223.998Y131.735
G1 X226.19Y136.229
; Layer C00 Pass 2 of 2
G1 X223.493Y137.544
G1 X221.301Y133.05
G1 X223.998Y131.735
G1 X226.19Y136.229
G0 X223.496Y126.194
; Layer C00 Pass 1 of 2
G1 X219.471Y128.157
G1 X217.279Y123.663
G1 X226.267Y119.28
G1 X228.459Y123.774
G1 X224.434Y125.737
G1 X224.948Y125.649
G1 X225.456Y125.659
G1 X225.946Y125.76
G1 X226.406Y125.947
G1 X226.826Y126.212
G1 X227.193Y126.552
G1 X227.496Y126.959
G1 X227.724Y127.428
G1 X227.86Y127.931
G1 X227.899Y128.437
G1 X227.845Y128.935
G1 X227.703Y129.411
G1 X227.479Y129.854
G1 X227.176Y130.252
G1 X226.799Y130.592
G1 X226.354Y130.864
G1 X225.866Y131.047
G1 X225.366Y131.134
G1 X224.866Y131.128
G1 X224.379Y131.032
G1 X223.916Y130.851
G1 X223.491Y130.587
G1 X223.116Y130.245
G1 X222.803Y129.828
G1 X222.574Y129.36
G1 X222.44Y128.87
G1 X222.399Y128.372
G1 X222.448Y127.877
G1 X222.584Y127.4
G1 X222.806Y126.951
G1 X223.111Y126.545
G1 X223.496Y126.194
; Layer C00 Pass 2 of 2
G1 X219.471Y128.157
G1 X217.279Y123.663
G1 X226.267Y119.28
G1 X228.459Y123.774
G1 X224.434Y125.737
G1 X224.948Y125.649
G1 X225.456Y125.659
G1 X225.946Y125.76
G1 X226.406Y125.947
G1 X226.826Y126.212
G1 X227.193Y126.552
G1 X227.496Y126.959
G1 X227.724Y127.428
G1 X227.86Y127.931
G1 X227.899Y128.437
G1 X227.845Y128.935
G1 X227.703Y129.411
G1 X227.479Y129.854
G1 X227.176Y130.252
G1 X226.799Y130.592
G1 X226.354Y130.864
G1 X225.866Y131.047
G1 X225.366Y131.134
G1 X224.866Y131.128
G1 X224.379Y131.032
G1 X223.916Y130.851
G1 X223.491Y130.587
G1 X223.116Y130.245
G1 X222.803Y129.828
G1 X222.574Y129.36
G1 X222.44Y128.87
G1 X222.399Y128.372
G1 X222.448Y127.877
G1 X222.584Y127.4
G1 X222.806Y126.951
G1 X223.111Y126.545
G1 X223.496Y126.194
G0 X219.319Y161.61
; Layer C00 Pass 1 of 2
G1 X221.091Y171.66
G1 X213.705Y172.962
G1 X214.574Y177.886
G1 X218.984Y177.109
G1 X218.516Y177.34
G1 X218.111Y177.646
G1 X217.775Y178.016
G1 X217.512Y178.437
G1 X217.329Y178.899
G1 X217.231Y179.39
G1 X217.225Y179.897
G1 X217.316Y180.41
G1 X217.502Y180.898
G1 X217.768Y181.33
G1 X218.104Y181.7
G1 X218.498Y182.002
G1 X218.941Y182.229
G1 X219.42Y182.372
G1 X219.924Y182.427
G1 X220.444Y182.385
G1 X220.947Y182.247
G1 X221.402Y182.023
G1 X221.803Y181.724
G1 X222.141Y181.36
G1 X222.409Y180.941
G1 X222.598Y180.478
G1 X222.7Y179.981
G1 X222.708Y179.46
G1 X222.618Y178.946
G1 X222.439Y178.471
G1 X222.179Y178.044
G1 X221.849Y177.672
G1 X221.458Y177.366
G1 X221.015Y177.134
G1 X220.53Y176.985
G1 X220.012Y176.927
G1 X224.422Y176.15
G1 X223.666Y171.866
G1 X228.685Y170.981
G1 X234.624Y204.658
G1 X234.654Y205.062
G1 X234.604Y205.452
G1 X234.481Y205.818
G1 X234.292Y206.152
G1 X234.043Y206.444
G1 X233.741Y206.685
G1 X233.391Y206.865
G1 X233.001Y206.975
G1 X219.791Y209.304
G1 X219.517Y209.373
G1 X219.259Y209.477
G1 X219.019Y209.616
G1 X218.803Y209.785
G1 X218.611Y209.983
G1 X218.448Y210.205
G1 X218.316Y210.451
G1 X218.218Y210.716
G1 X217.433Y213.421
G1 X217.336Y213.686
G1 X217.204Y213.932
G1 X217.04Y214.154
G1 X216.849Y214.352
G1 X216.632Y214.521
G1 X216.393Y214.659
G1 X216.134Y214.764
G1 X215.86Y214.833
G1 X201.907Y217.293
G1 X201.632Y217.362
G1 X201.374Y217.467
G1 X201.135Y217.605
G1 X200.918Y217.775
G1 X200.727Y217.972
G1 X200.563Y218.195
G1 X200.431Y218.44
G1 X200.333Y218.706
G1 X199.549Y221.41
G1 X199.451Y221.676
G1 X199.319Y221.921
G1 X199.156Y222.144
G1 X198.964Y222.341
G1 X198.747Y222.511
G1 X198.508Y222.649
G1 X198.25Y222.754
G1 X197.976Y222.823
G1 X180.542Y225.896
G1 X180.261Y225.926
G1 X179.982Y225.916
G1 X179.71Y225.867
G1 X179.449Y225.782
G1 X179.201Y225.662
G1 X178.972Y225.509
G1 X178.763Y225.323
G1 X178.581Y225.107
G1 X176.919Y222.834
G1 X176.736Y222.618
G1 X176.528Y222.433
G1 X176.298Y222.279
G1 X176.051Y222.159
G1 X175.789Y222.075
G1 X175.517Y222.026
G1 X175.239Y222.016
G1 X174.957Y222.045
G1 X160.772Y224.547
G1 X159.515Y223.23
G1 X124.043Y229.403
G1 X123.639Y229.432
G1 X123.25Y229.381
G1 X122.884Y229.258
G1 X122.551Y229.069
G1 X122.26Y228.82
G1 X122.02Y228.518
G1 X121.84Y228.169
G1 X121.73Y227.779
G1 X121.687Y227.532
G1 X154.773Y221.699
G1 X154.165Y218.252
G1 X121.079Y224.086
G1 X119.082Y212.76
G1 X152.168Y206.926
G1 X151.561Y203.48
G1 X118.474Y209.314
G1 X117.682Y204.82
G1 X121.963Y204.066
G1 X117.795Y180.43
G1 X113.515Y181.185
G1 X111.753Y171.193
G1 X111.723Y170.789
G1 X111.772Y170.399
G1 X111.895Y170.032
G1 X112.084Y169.698
G1 X112.333Y169.406
G1 X112.636Y169.166
G1 X112.985Y168.986
G1 X113.375Y168.876
G1 X148.776Y162.633
G1 X149.058Y162.604
G1 X149.336Y162.614
G1 X149.608Y162.663
G1 X149.87Y162.748
G1 X150.118Y162.868
G1 X150.347Y163.021
G1 X150.555Y163.207
G1 X150.738Y163.423
G1 X152.4Y165.695
G1 X152.583Y165.911
G1 X152.791Y166.097
G1 X153.021Y166.251
G1 X153.268Y166.37
G1 X153.53Y166.455
G1 X153.802Y166.504
G1 X154.08Y166.514
G1 X154.362Y166.485
G1 X168.315Y164.024
G1 X168.596Y163.995
G1 X168.875Y164.005
G1 X169.147Y164.054
G1 X169.408Y164.138
G1 X169.656Y164.258
G1 X169.886Y164.412
G1 X170.094Y164.597
G1 X170.276Y164.813
G1 X171.938Y167.086
G1 X172.121Y167.302
G1 X172.329Y167.488
G1 X172.559Y167.641
G1 X172.806Y167.761
G1 X173.068Y167.846
G1 X173.34Y167.895
G1 X173.619Y167.905
G1 X173.9Y167.875
G1 X184.373Y166.029
G1 X184.647Y165.96
G1 X184.906Y165.855
G1 X185.145Y165.717
G1 X185.362Y165.547
G1 X185.553Y165.35
G1 X185.717Y165.127
G1 X185.849Y164.882
G1 X185.947Y164.616
G1 X186.731Y161.912
G1 X186.829Y161.647
G1 X186.961Y161.401
G1 X187.124Y161.178
G1 X187.316Y160.981
G1 X187.533Y160.812
G1 X187.772Y160.673
G1 X188.03Y160.568
G1 X188.304Y160.5
G1 X197.036Y158.96
G1 X197.416Y158.853
G1 X197.764Y158.677
G1 X198.072Y158.435
G1 X198.328Y158.136
G1 X198.521Y157.792
G1 X198.642Y157.421
G1 X198.689Y157.033
G1 X198.658Y156.639
G1 X194.678Y134.305
G1 X194.647Y133.925
G1 X194.687Y133.555
G1 X194.793Y133.204
G1 X194.959Y132.881
G1 X195.182Y132.593
G1 X195.454Y132.349
G1 X195.772Y132.156
G1 X196.13Y132.022
G1 X209.513Y128.436
G1 X209.729Y128.365
G1 X209.934Y128.271
G1 X210.126Y128.154
G1 X210.303Y128.018
G1 X210.463Y127.863
G1 X210.606Y127.69
G1 X210.729Y127.501
G1 X210.831Y127.297
G1 X212.262Y123.981
G1 X212.431Y123.669
G1 X212.652Y123.393
G1 X212.917Y123.16
G1 X213.222Y122.976
G1 X228Y115.768
G1 X228.38Y115.628
G1 X228.769Y115.568
G1 X229.155Y115.585
G1 X229.528Y115.675
G1 X229.877Y115.834
G1 X230.192Y116.058
G1 X230.461Y116.345
G1 X230.674Y116.689
G1 X238.075Y131.863
G1 X238.185Y132.137
G1 X238.252Y132.42
G1 X238.277Y132.706
G1 X238.262Y132.992
G1 X238.205Y133.272
G1 X238.109Y133.543
G1 X237.974Y133.8
G1 X237.799Y134.038
G1 X225.46Y148.503
G1 X225.212Y148.869
G1 X225.052Y149.275
G1 X224.984Y149.707
G1 X225.012Y150.148
G1 X226.775Y160.148
G1 X219.355Y161.456
G1 X219.398Y161.155
G1 X219.408Y160.854
G1 X219.385Y160.555
G1 X219.329Y160.262
G1 X219.243Y159.976
G1 X219.125Y159.7
G1 X218.977Y159.438
G1 X218.8Y159.191
G1 X218.596Y158.965
G1 X218.371Y158.764
G1 X218.127Y158.591
G1 X217.866Y158.445
G1 X217.59Y158.329
G1 X217.303Y158.243
G1 X217.007Y158.188
G1 X216.704Y158.167
G1 X221.114Y157.389
G1 X220.245Y152.465
G1 X210.397Y154.202
G1 X211.266Y159.126
G1 X215.676Y158.348
G1 X215.244Y158.558
G1 X214.863Y158.833
G1 X214.539Y159.164
G1 X214.277Y159.542
G1 X214.081Y159.959
G1 X213.956Y160.405
G1 X213.909Y160.872
G1 X213.943Y161.351
G1 X214.06Y161.816
G1 X214.251Y162.245
G1 X214.508Y162.63
G1 X214.824Y162.965
G1 X215.192Y163.243
G1 X215.603Y163.456
G1 X216.05Y163.598
G1 X216.526Y163.663
G1 X217.005Y163.645
G1 X217.464Y163.546
G1 X217.894Y163.373
G1 X218.287Y163.132
G1 X218.634Y162.83
G1 X218.927Y162.471
G1 X219.158Y162.063
G1 X219.319Y161.61
; Layer C00 Pass 2 of 2
G1 X221.091Y171.66
G1 X213.705Y172.962
G1 X214.574Y177.886
G1 X218.984Y177.109
G1 X218.516Y177.34
G1 X218.111Y177.646
G1 X217.775Y178.016
G1 X217.512Y178.437
G1 X217.329Y178.899
G1 X217.231Y179.39
G1 X217.225Y179.897
G1 X217.316Y180.41
G1 X217.502Y180.898
G1 X217.768Y181.33
G1 X218.104Y181.7
G1 X218.498Y182.002
G1 X218.941Y182.229
G1 X219.42Y182.372
G1 X219.924Y182.427
G1 X220.444Y182.385
G1 X220.947Y182.247
G1 X221.402Y182.023
G1 X221.803Y181.724
G1 X222.141Y181.36
G1 X222.409Y180.941
G1 X222.598Y180.478
G1 X222.7Y179.981
G1 X222.708Y179.46
G1 X222.618Y178.946
G1 X222.439Y178.471
G1 X222.179Y178.044
G1 X221.849Y177.672
G1 X221.458Y177.366
G1 X221.015Y177.134
G1 X220.53Y176.985
G1 X220.012Y176.927
G1 X224.422Y176.15
G1 X223.666Y171.866
G1 X228.685Y170.981
G1 X234.624Y204.658
G1 X234.654Y205.062
G1 X234.604Y205.452
G1 X234.481Y205.818
G1 X234.292Y206.152
G1 X234.043Y206.444
G1 X233.741Y206.685
G1 X233.391Y206.865
G1 X233.001Y206.975
G1 X219.791Y209.304
G1 X219.517Y209.373
G1 X219.259Y209.477
G1 X219.019Y209.616
G1 X218.803Y209.785
G1 X218.611Y209.983
G1 X218.448Y210.205
G1 X218.316Y210.451
G1 X218.218Y210.716
G1 X217.433Y213.421
G1 X217.336Y213.686
G1 X217.204Y213.932
G1 X217.04Y214.154
G1 X216.849Y214.352
G1 X216.632Y214.521
G1 X216.393Y214.659
G1 X216.134Y214.764
G1 X215.86Y214.833
G1 X201.907Y217.293
G1 X201.632Y217.362
G1 X201.374Y217.467
G1 X201.135Y217.605
G1 X200.918Y217.775
G1 X200.727Y217.972
G1 X200.563Y218.195
G1 X200.431Y218.44
G1 X200.333Y218.706
G1 X199.549Y221.41
G1 X199.451Y221.676
G1 X199.319Y221.921
G1 X199.156Y222.144
G1 X198.964Y222.341
G1 X198.747Y222.511
G1 X198.508Y222.649
G1 X198.25Y222.754
G1 X197.976Y222.823
G1 X180.542Y225.896
G1 X180.261Y225.926
G1 X179.982Y225.916
G1 X179.71Y225.867
G1 X179.449Y225.782
G1 X179.201Y225.662
G1 X178.972Y225.509
G1 X178.763Y225.323
G1 X178.581Y225.107
G1 X176.919Y222.834
G1 X176.736Y222.618
G1 X176.528Y222.433
G1 X176.298Y222.279
G1 X176.051Y222.159
G1 X175.789Y222.075
G1 X175.517Y222.026
G1 X175.239Y222.016
G1 X174.957Y222.045
G1 X160.772Y224.547
G1 X159.515Y223.23
G1 X124.043Y229.403
G1 X123.639Y229.432
G1 X123.25Y229.381
G1 X122.884Y229.258
G1 X122.551Y229.069
G1 X122.26Y228.82
G1 X122.02Y228.518
G1 X121.84Y228.169
G1 X121.73Y227.779
G1 X121.687Y227.532
G1 X154.773Y221.699
G1 X154.165Y218.252
G1 X121.079Y224.086
G1 X119.082Y212.76
G1 X152.168Y206.926
G1 X151.561Y203.48
G1 X118.474Y209.314
G1 X117.682Y204.82
G1 X121.963Y204.066
G1 X117.795Y180.43
G1 X113.515Y181.185
G1 X111.753Y171.193
G1 X111.723Y170.789
G1 X111.772Y170.399
G1 X111.895Y170.032
G1 X112.084Y169.698
G1 X112.333Y169.406
G1 X112.636Y169.166
G1 X112.985Y168.986
G1 X113.375Y168.876
G1 X148.776Y162.633
G1 X149.058Y162.604
G1 X149.336Y162.614
G1 X149.608Y162.663
G1 X149.87Y162.748
G1 X150.118Y162.868
G1 X150.347Y163.021
G1 X150.555Y163.207
G1 X150.738Y163.423
G1 X152.4Y165.695
G1 X152.583Y165.911
G1 X152.791Y166.097
G1 X153.021Y166.251
G1 X153.268Y166.37
G1 X153.53Y166.455
G1 X153.802Y166.504
G1 X154.08Y166.514
G1 X154.362Y166.485
G1 X168.315Y164.024
G1 X168.596Y163.995
G1 X168.875Y164.005
G1 X169.147Y164.054
G1 X169.408Y164.138
G1 X169.656Y164.258
G1 X169.886Y164.412
G1 X170.094Y164.597
G1 X170.276Y164.813
G1 X171.938Y167.086
G1 X172.121Y167.302
G1 X172.329Y167.488
G1 X172.559Y167.641
G1 X172.806Y167.761
G1 X173.068Y167.846
G1 X173.34Y167.895
G1 X173.619Y167.905
G1 X173.9Y167.875
G1 X184.373Y166.029
G1 X184.647Y165.96
G1 X184.906Y165.855
G1 X185.145Y165.717
G1 X185.362Y165.547
G1 X185.553Y165.35
G1 X185.717Y165.127
G1 X185.849Y164.882
G1 X185.947Y164.616
G1 X186.731Y161.912
G1 X186.829Y161.647
G1 X186.961Y161.401
G1 X187.124Y161.178
G1 X187.316Y160.981
G1 X187.533Y160.812
G1 X187.772Y160.673
G1 X188.03Y160.568
G1 X188.304Y160.5
G1 X197.036Y158.96
G1 X197.416Y158.853
G1 X197.764Y158.677
G1 X198.072Y158.435
G1 X198.328Y158.136
G1 X198.521Y157.792
G1 X198.642Y157.421
G1 X198.689Y157.033
G1 X198.658Y156.639
G1 X194.678Y134.305
G1 X194.647Y133.925
G1 X194.687Y133.555
G1 X194.793Y133.204
G1 X194.959Y132.881
G1 X195.182Y132.593
G1 X195.454Y132.349
G1 X195.772Y132.156
G1 X196.13Y132.022
G1 X209.513Y128.436
G1 X209.729Y128.365
G1 X209.934Y128.271
G1 X210.126Y128.154
G1 X210.303Y128.018
G1 X210.463Y127.863
G1 X210.606Y127.69
G1 X210.729Y127.501
G1 X210.831Y127.297
G1 X212.262Y123.981
G1 X212.431Y123.669
G1 X212.652Y123.393
G1 X212.917Y123.16
G1 X213.222Y122.976
G1 X228Y115.768
G1 X228.38Y115.628
G1 X228.769Y115.568
G1 X229.155Y115.585
G1 X229.528Y115.675
G1 X229.877Y115.834
G1 X230.192Y116.058
G1 X230.461Y116.345
G1 X230.674Y116.689
G1 X238.075Y131.863
G1 X238.185Y132.137
G1 X238.252Y132.42
G1 X238.277Y132.706
G1 X238.262Y132.992
G1 X238.205Y133.272
G1 X238.109Y133.543
G1 X237.974Y133.8
G1 X237.799Y134.038
G1 X225.46Y148.503
G1 X225.212Y148.869
G1 X225.052Y149.275
G1 X224.984Y149.707
G1 X225.012Y150.148
G1 X226.775Y160.148
G1 X219.355Y161.456
G1 X219.398Y161.155
G1 X219.408Y160.854
G1 X219.385Y160.555
G1 X219.329Y160.262
G1 X219.243Y159.976
G1 X219.125Y159.7
G1 X218.977Y159.438
G1 X218.8Y159.191
G1 X218.596Y158.965
G1 X218.371Y158.764
G1 X218.127Y158.591
G1 X217.866Y158.445
G1 X217.59Y158.329
G1 X217.303Y158.243
G1 X217.007Y158.188
G1 X216.704Y158.167
G1 X221.114Y157.389
G1 X220.245Y152.465
G1 X210.397Y154.202
G1 X211.266Y159.126
G1 X215.676Y158.348
G1 X215.244Y158.558
G1 X214.863Y158.833
G1 X214.539Y159.164
G1 X214.277Y159.542
G1 X214.081Y159.959
G1 X213.956Y160.405
G1 X213.909Y160.872
G1 X213.943Y161.351
G1 X214.06Y161.816
G1 X214.251Y162.245
G1 X214.508Y162.63
G1 X214.824Y162.965
G1 X215.192Y163.243
G1 X215.603Y163.456
G1 X216.05Y163.598
G1 X216.526Y163.663
G1 X217.005Y163.645
G1 X217.464Y163.546
G1 X217.894Y163.373
G1 X218.287Y163.132
G1 X218.634Y162.83
G1 X218.927Y162.471
G1 X219.158Y162.063
G1 X219.319Y161.61
M9
G1 S0
M5
G90
; return to user-defined finish pos
G0 X0Y0
M2
